{"type": "FeatureCollection", "name": "olmoearth_nepal_rasuwa_2026_candidates", "license": "CC-BY-4.0 derived from ESA Copernicus Sentinel-2; OlmoEarth v1 Base (Ai2)", "claim": "candidate change (representation moved more than its ordinary range) \u2014 not damage, not cause, not probability", "features": [{"type": "Feature", "geometry": {"type": "Polygon", "coordinates": [[[85.364127, 28.266348], [85.390218, 28.266658], [85.38987, 28.289758], [85.363774, 28.289448], [85.364127, 28.266348]]]}, "properties": {"id": "v000", "kind": "river", "status": "ranked", "rank": 25, "candidate_token_frac": 0.07844946931241348, "valid_event_frac": 0.529052734375, "d_event_mean": 0.1764376312494278, "d_placebo_mean": 0.13552454113960266, "center_lonlat": [85.3769971, 28.2780537], "candidate_token_frac_pooled3": 0.046608214120904476, "place": "Rasuwa Gadhi, Gosaikunda"}}, {"type": "Feature", "geometry": {"type": "Polygon", "coordinates": [[[85.35781, 28.24927], [85.383896, 28.249581], [85.383548, 28.272681], [85.357455, 28.272369], [85.35781, 28.24927]]]}, "properties": {"id": "v001", "kind": "river", "status": "ranked", "rank": 30, "candidate_token_frac": 0.06566200215285253, "valid_event_frac": 0.45361328125, "d_event_mean": 0.18557684123516083, "d_placebo_mean": 0.15156197547912598, "center_lonlat": [85.3706772, 28.2609758], "candidate_token_frac_pooled3": 0.03982777179763186, "place": "Gosaikunda"}}, {"type": "Feature", "geometry": {"type": "Polygon", "coordinates": [[[85.345317, 28.229489], [85.371399, 28.229802], [85.371048, 28.252901], [85.344961, 28.252588], [85.345317, 28.229489]]]}, "properties": {"id": "v002", "kind": "river", "status": "ranked", "rank": 5, "candidate_token_frac": 0.14025131738954194, "valid_event_frac": 0.602294921875, "d_event_mean": 0.21477912366390228, "d_placebo_mean": 0.11853685230016708, "center_lonlat": [85.3581813, 28.2411955], "candidate_token_frac_pooled3": 0.0713417105796514, "place": "Timure, Gosaikunda"}}, {"type": "Feature", "geometry": {"type": "Polygon", "coordinates": [[[85.348235, 28.213813], [85.374312, 28.214125], [85.373962, 28.237225], [85.347879, 28.236912], [85.348235, 28.213813]]]}, "properties": {"id": "v003", "kind": "river", "status": "ranked", "rank": 1, "candidate_token_frac": 0.25432900432900435, "valid_event_frac": 0.451171875, "d_event_mean": 0.2569426894187927, "d_placebo_mean": 0.10326941311359406, "center_lonlat": [85.361097, 28.2255196], "candidate_token_frac_pooled3": 0.1331168831168831, "place": "Dalphedi, Gosaikunda"}}, {"type": "Feature", "geometry": {"type": "Polygon", "coordinates": [[[85.341388, 28.197175], [85.367462, 28.197489], [85.36711, 28.220589], [85.341031, 28.220275], [85.341388, 28.197175]]]}, "properties": {"id": "v004", "kind": "river", "status": "ranked", "rank": 16, "candidate_token_frac": 0.09777389786119599, "valid_event_frac": 0.559326171875, "d_event_mean": 0.18584102392196655, "d_placebo_mean": 0.09911609441041946, "center_lonlat": [85.3542477, 28.2088826], "candidate_token_frac_pooled3": 0.048886948930597994, "place": "Thuman, Gosaikunda"}}, {"type": "Feature", "geometry": {"type": "Polygon", "coordinates": [[[85.333746, 28.177077], [85.359814, 28.177392], [85.359462, 28.200491], [85.333387, 28.200176], [85.333746, 28.177077]]]}, "properties": {"id": "v005", "kind": "river", "status": "ranked", "rank": 41, "candidate_token_frac": 0.038065254722381224, "valid_event_frac": 0.85302734375, "d_event_mean": 0.14805351197719574, "d_placebo_mean": 0.11163957417011261, "center_lonlat": [85.3466022, 28.1887847], "candidate_token_frac_pooled3": 0.022037779049799658, "place": "Aamachhodingmo, Aamachhodingmo"}}, {"type": "Feature", "geometry": {"type": "Polygon", "coordinates": [[[85.329833, 28.15962], [85.355897, 28.159935], [85.355544, 28.183035], [85.329474, 28.182719], [85.329833, 28.15962]]]}, "properties": {"id": "v006", "kind": "river", "status": "ranked", "rank": 26, "candidate_token_frac": 0.07827926657263752, "valid_event_frac": 0.6923828125, "d_event_mean": 0.16718196868896484, "d_placebo_mean": 0.1289677768945694, "center_lonlat": [85.3426869, 28.1713281], "candidate_token_frac_pooled3": 0.04266572637517631, "place": "Shyaphru Bensi, Gosaikunda"}}, {"type": "Feature", "geometry": {"type": "Polygon", "coordinates": [[[85.321092, 28.146923], [85.347153, 28.14724], [85.346798, 28.170339], [85.320731, 28.170022], [85.321092, 28.146923]]]}, "properties": {"id": "v007", "kind": "river", "status": "ranked", "rank": 31, "candidate_token_frac": 0.06417284746855853, "valid_event_frac": 0.757080078125, "d_event_mean": 0.1694941222667694, "d_placebo_mean": 0.13554948568344116, "center_lonlat": [85.3339434, 28.1586316], "candidate_token_frac_pooled3": 0.03192518542405676, "place": "Bahun Danda, Gosaikunda"}}, {"type": "Feature", "geometry": {"type": "Polygon", "coordinates": [[[85.308149, 28.137559], [85.334208, 28.137878], [85.33385, 28.160978], [85.307786, 28.160658], [85.308149, 28.137559]]]}, "properties": {"id": "v008", "kind": "river", "status": "ranked", "rank": 34, "candidate_token_frac": 0.05756302521008403, "valid_event_frac": 0.5810546875, "d_event_mean": 0.1628160923719406, "d_placebo_mean": 0.13782371580600739, "center_lonlat": [85.3209984, 28.1492687], "candidate_token_frac_pooled3": 0.034873949579831934, "place": "Brabal, Gosaikunda"}}, {"type": "Feature", "geometry": {"type": "Polygon", "coordinates": [[[85.294777, 28.129021], [85.320833, 28.129342], [85.320473, 28.152442], [85.294411, 28.15212], [85.294777, 28.129021]]]}, "properties": {"id": "v009", "kind": "river", "status": "ranked", "rank": 35, "candidate_token_frac": 0.05651423641069888, "valid_event_frac": 0.56591796875, "d_event_mean": 0.1617489904165268, "d_placebo_mean": 0.13713037967681885, "center_lonlat": [85.3076233, 28.1407319], "candidate_token_frac_pooled3": 0.032355478861087146, "place": "Sano Bharkhu, Gosaikunda"}}, {"type": "Feature", "geometry": {"type": "Polygon", "coordinates": [[[85.28772, 28.118416], [85.313774, 28.118739], [85.313412, 28.141839], [85.287353, 28.141515], [85.28772, 28.118416]]]}, "properties": {"id": "v010", "kind": "river", "status": "ranked", "rank": 36, "candidate_token_frac": 0.05625606207565471, "valid_event_frac": 0.50341796875, "d_event_mean": 0.1742202341556549, "d_placebo_mean": 0.1427212804555893, "center_lonlat": [85.300565, 28.1301279], "candidate_token_frac_pooled3": 0.028612997090203686, "place": "Sano Bharkhu, Gosaikunda"}}, {"type": "Feature", "geometry": {"type": "Polygon", "coordinates": [[[85.278265, 28.110254], [85.304317, 28.110579], [85.303954, 28.133678], [85.277896, 28.133353], [85.278265, 28.110254]]]}, "properties": {"id": "v011", "kind": "river", "status": "ranked", "rank": 33, "candidate_token_frac": 0.0594059405940594, "valid_event_frac": 0.468505859375, "d_event_mean": 0.18908733129501343, "d_placebo_mean": 0.15446804463863373, "center_lonlat": [85.2911081, 28.1219667], "candidate_token_frac_pooled3": 0.03230849400729546, "place": "Gosaikunda, Gosaikunda"}}, {"type": "Feature", "geometry": {"type": "Polygon", "coordinates": [[[85.266008, 28.099409], [85.292057, 28.099736], [85.291691, 28.122835], [85.265637, 28.122508], [85.266008, 28.099409]]]}, "properties": {"id": "v012", "kind": "river", "status": "ranked", "rank": 24, "candidate_token_frac": 0.07951685958731756, "valid_event_frac": 0.485107421875, "d_event_mean": 0.18780513107776642, "d_placebo_mean": 0.15963192284107208, "center_lonlat": [85.2788483, 28.1111229], "candidate_token_frac_pooled3": 0.0412682435832914, "place": "Gosaikunda, Gosaikunda"}}, {"type": "Feature", "geometry": {"type": "Polygon", "coordinates": [[[85.254487, 28.090751], [85.280533, 28.09108], [85.280165, 28.114179], [85.254113, 28.11385], [85.254487, 28.090751]]]}, "properties": {"id": "v013", "kind": "river", "status": "ranked", "rank": 32, "candidate_token_frac": 0.0626204238921002, "valid_event_frac": 0.5068359375, "d_event_mean": 0.1752428412437439, "d_placebo_mean": 0.15193195641040802, "center_lonlat": [85.2673244, 28.1024659], "candidate_token_frac_pooled3": 0.028901734104046242, "place": "Gosaikunda, Gosaikunda"}}, {"type": "Feature", "geometry": {"type": "Polygon", "coordinates": [[[85.237472, 28.081081], [85.263516, 28.081413], [85.263144, 28.104512], [85.237094, 28.104179], [85.237472, 28.081081]]]}, "properties": {"id": "v014", "kind": "river", "status": "ranked", "rank": 43, "candidate_token_frac": 0.03265940902021773, "valid_event_frac": 0.31396484375, "d_event_mean": 0.16702991724014282, "d_placebo_mean": 0.13809962570667267, "center_lonlat": [85.2503065, 28.0927968], "candidate_token_frac_pooled3": 0.017107309486780714, "place": "Aamachhodingmo"}}, {"type": "Feature", "geometry": {"type": "Polygon", "coordinates": [[[85.19548, 28.059332], [85.221519, 28.059672], [85.221138, 28.08277], [85.195094, 28.08243], [85.19548, 28.059332]]]}, "properties": {"id": "v017", "kind": "river", "status": "ranked", "rank": 42, "candidate_token_frac": 0.036943744752308987, "valid_event_frac": 0.290771484375, "d_event_mean": 0.1742263287305832, "d_placebo_mean": 0.1538490504026413, "center_lonlat": [85.2083079, 28.0710515], "candidate_token_frac_pooled3": 0.014273719563392108, "place": "Grang, Kalika"}}, {"type": "Feature", "geometry": {"type": "Polygon", "coordinates": [[[85.195135, 28.04892], [85.22117, 28.049259], [85.22079, 28.072358], [85.194749, 28.072018], [85.195135, 28.04892]]]}, "properties": {"id": "v018", "kind": "river", "status": "ranked", "rank": 37, "candidate_token_frac": 0.053939714436805924, "valid_event_frac": 0.461669921875, "d_event_mean": 0.1743401288986206, "d_placebo_mean": 0.15300308167934418, "center_lonlat": [85.2079608, 28.0606393], "candidate_token_frac_pooled3": 0.026969857218402962, "place": "Grang, Kalika"}}, {"type": "Feature", "geometry": {"type": "Polygon", "coordinates": [[[85.189649, 28.036736], [85.215682, 28.037076], [85.215301, 28.060175], [85.189262, 28.059834], [85.189649, 28.036736]]]}, "properties": {"id": "v019", "kind": "river", "status": "ranked", "rank": 19, "candidate_token_frac": 0.08775731310942579, "valid_event_frac": 0.45068359375, "d_event_mean": 0.1796252429485321, "d_placebo_mean": 0.14973075687885284, "center_lonlat": [85.2024736, 28.0484558], "candidate_token_frac_pooled3": 0.04496208017334778, "place": "Chipleti, Uttargaya"}}, {"type": "Feature", "geometry": {"type": "Polygon", "coordinates": [[[85.180912, 28.025239], [85.206941, 28.025581], [85.206558, 28.04868], [85.180523, 28.048337], [85.180912, 28.025239]]]}, "properties": {"id": "v020", "kind": "river", "status": "ranked", "rank": 23, "candidate_token_frac": 0.08015430775825118, "valid_event_frac": 0.569580078125, "d_event_mean": 0.16251450777053833, "d_placebo_mean": 0.11543677002191544, "center_lonlat": [85.1937336, 28.0369598], "candidate_token_frac_pooled3": 0.04972138876982426, "place": "Uttargaya, Uttargaya"}}, {"type": "Feature", "geometry": {"type": "Polygon", "coordinates": [[[85.177253, 28.01422], [85.20328, 28.014563], [85.202897, 28.037662], [85.176864, 28.037318], [85.177253, 28.01422]]]}, "properties": {"id": "v021", "kind": "river", "status": "ranked", "rank": 13, "candidate_token_frac": 0.10562890896455872, "valid_event_frac": 0.70263671875, "d_event_mean": 0.17352977395057678, "d_placebo_mean": 0.09726396203041077, "center_lonlat": [85.1900736, 28.0259415], "candidate_token_frac_pooled3": 0.06080611535788742, "place": "Uttargaya, Uttargaya"}}, {"type": "Feature", "geometry": {"type": "Polygon", "coordinates": [[[85.171847, 28.001674], [85.197871, 28.002017], [85.197486, 28.025116], [85.171457, 28.024772], [85.171847, 28.001674]]]}, "properties": {"id": "v022", "kind": "river", "status": "ranked", "rank": 10, "candidate_token_frac": 0.1143661971830986, "valid_event_frac": 0.86669921875, "d_event_mean": 0.16348980367183685, "d_placebo_mean": 0.08850929886102676, "center_lonlat": [85.1846652, 28.0133953], "candidate_token_frac_pooled3": 0.07295774647887324, "place": "Shanti Bazar, Kispang"}}, {"type": "Feature", "geometry": {"type": "Polygon", "coordinates": [[[85.171051, 27.989744], [85.197072, 27.990087], [85.196687, 28.013186], [85.170661, 28.012842], [85.171051, 27.989744]]]}, "properties": {"id": "v023", "kind": "river", "status": "ranked", "rank": 18, "candidate_token_frac": 0.0924871168972064, "valid_event_frac": 0.900146484375, "d_event_mean": 0.14501939713954926, "d_placebo_mean": 0.08926485478878021, "center_lonlat": [85.1838676, 28.0014652], "candidate_token_frac_pooled3": 0.060211554109031735, "place": "Karki Gaun, Kispang"}}, {"type": "Feature", "geometry": {"type": "Polygon", "coordinates": [[[85.168718, 27.966968], [85.194733, 27.967312], [85.194349, 27.99041], [85.168327, 27.990066], [85.168718, 27.966968]]]}, "properties": {"id": "v024", "kind": "river", "status": "ranked", "rank": 4, "candidate_token_frac": 0.1463225806451613, "valid_event_frac": 0.946044921875, "d_event_mean": 0.1627393662929535, "d_placebo_mean": 0.10497783124446869, "center_lonlat": [85.1815317, 27.9786895], "candidate_token_frac_pooled3": 0.10683870967741936, "place": "Naubisephat, Uttargaya"}}, {"type": "Feature", "geometry": {"type": "Polygon", "coordinates": [[[85.163448, 27.953222], [85.189461, 27.953566], [85.189075, 27.976665], [85.163057, 27.97632], [85.163448, 27.953222]]]}, "properties": {"id": "v025", "kind": "river", "status": "ranked", "rank": 3, "candidate_token_frac": 0.17963910584433074, "valid_event_frac": 0.906494140625, "d_event_mean": 0.18391652405261993, "d_placebo_mean": 0.11969434469938278, "center_lonlat": [85.1762602, 27.9649438], "candidate_token_frac_pooled3": 0.1316994344196068, "place": "Bhainse, Bidur"}}, {"type": "Feature", "geometry": {"type": "Polygon", "coordinates": [[[85.149077, 27.942768], [85.175087, 27.943115], [85.174699, 27.966214], [85.148683, 27.965866], [85.149077, 27.942768]]]}, "properties": {"id": "v026", "kind": "river", "status": "ranked", "rank": 20, "candidate_token_frac": 0.08333333333333333, "valid_event_frac": 0.943359375, "d_event_mean": 0.14209167659282684, "d_placebo_mean": 0.09037141501903534, "center_lonlat": [85.1618866, 27.9544913], "candidate_token_frac_pooled3": 0.06418219461697723, "place": "Bhainse, Bidur"}}, {"type": "Feature", "geometry": {"type": "Polygon", "coordinates": [[[85.142488, 27.921906], [85.168492, 27.922254], [85.168103, 27.945352], [85.142092, 27.945004], [85.142488, 27.921906]]]}, "properties": {"id": "v027", "kind": "river", "status": "ranked", "rank": 15, "candidate_token_frac": 0.103751617076326, "valid_event_frac": 0.943603515625, "d_event_mean": 0.1454230099916458, "d_placebo_mean": 0.09091983735561371, "center_lonlat": [85.1552937, 27.9336297], "candidate_token_frac_pooled3": 0.08098318240620957, "place": "Bidur"}}, {"type": "Feature", "geometry": {"type": "Polygon", "coordinates": [[[85.138329, 27.913265], [85.164331, 27.913614], [85.163941, 27.936712], [85.137933, 27.936363], [85.138329, 27.913265]]]}, "properties": {"id": "v028", "kind": "river", "status": "ranked", "rank": 29, "candidate_token_frac": 0.06720160481444333, "valid_event_frac": 0.9736328125, "d_event_mean": 0.10289616137742996, "d_placebo_mean": 0.07100670039653778, "center_lonlat": [85.1511333, 27.9249894], "candidate_token_frac_pooled3": 0.05541624874623872, "place": "Bidur, Bidur"}}, {"type": "Feature", "geometry": {"type": "Polygon", "coordinates": [[[85.127633, 27.90563], [85.153634, 27.905981], [85.153241, 27.929079], [85.127235, 27.928728], [85.127633, 27.90563]]]}, "properties": {"id": "v029", "kind": "river", "status": "ranked", "rank": 14, "candidate_token_frac": 0.10426065162907268, "valid_event_frac": 0.97412109375, "d_event_mean": 0.15554217994213104, "d_placebo_mean": 0.09384529292583466, "center_lonlat": [85.140436, 27.9173553], "candidate_token_frac_pooled3": 0.0786967418546366, "place": "Bidur, Bidur"}}, {"type": "Feature", "geometry": {"type": "Polygon", "coordinates": [[[85.123006, 27.881765], [85.149001, 27.882116], [85.148607, 27.905214], [85.122607, 27.904863], [85.123006, 27.881765]]]}, "properties": {"id": "v030", "kind": "river", "status": "ranked", "rank": 9, "candidate_token_frac": 0.1173036093418259, "valid_event_frac": 0.919921875, "d_event_mean": 0.21086013317108154, "d_placebo_mean": 0.14349181950092316, "center_lonlat": [85.1358053, 27.8934901], "candidate_token_frac_pooled3": 0.0660828025477707, "place": "Bidur, Bidur"}}, {"type": "Feature", "geometry": {"type": "Polygon", "coordinates": [[[85.109382, 27.86182], [85.135372, 27.862174], [85.134976, 27.885272], [85.108981, 27.884918], [85.109382, 27.86182]]]}, "properties": {"id": "v031", "kind": "river", "status": "ranked", "rank": 6, "candidate_token_frac": 0.13760041461518527, "valid_event_frac": 0.942138671875, "d_event_mean": 0.20114029943943024, "d_placebo_mean": 0.15569032728672028, "center_lonlat": [85.122178, 27.8735468], "candidate_token_frac_pooled3": 0.07981342316662347, "place": "Bidur, Bidur"}}, {"type": "Feature", "geometry": {"type": "Polygon", "coordinates": [[[85.097535, 27.850098], [85.123522, 27.850454], [85.123124, 27.873552], [85.097132, 27.873195], [85.097535, 27.850098]]]}, "properties": {"id": "v032", "kind": "river", "status": "ranked", "rank": 11, "candidate_token_frac": 0.10839532412327312, "valid_event_frac": 0.9189453125, "d_event_mean": 0.20137833058834076, "d_placebo_mean": 0.16953104734420776, "center_lonlat": [85.1103283, 27.8618254], "candidate_token_frac_pooled3": 0.04702444208289054, "place": "Bidur, Bidur"}}, {"type": "Feature", "geometry": {"type": "Polygon", "coordinates": [[[85.076392, 27.848309], [85.102378, 27.848669], [85.101975, 27.871767], [85.075984, 27.871406], [85.076392, 27.848309]]]}, "properties": {"id": "v033", "kind": "river", "status": "ranked", "rank": 27, "candidate_token_frac": 0.07674943566591422, "valid_event_frac": 0.865234375, "d_event_mean": 0.18328723311424255, "d_placebo_mean": 0.16271904110908508, "center_lonlat": [85.0891822, 27.8600385], "candidate_token_frac_pooled3": 0.030474040632054177, "place": "Khadag Bhanjyang, Bidur"}}, {"type": "Feature", "geometry": {"type": "Polygon", "coordinates": [[[85.04501, 27.846959], [85.070995, 27.847325], [85.070586, 27.870422], [85.044595, 27.870056], [85.04501, 27.846959]]]}, "properties": {"id": "v034", "kind": "river", "status": "ranked", "rank": 17, "candidate_token_frac": 0.09594953519256308, "valid_event_frac": 0.7353515625, "d_event_mean": 0.1780288964509964, "d_placebo_mean": 0.14766258001327515, "center_lonlat": [85.0577965, 27.8586913], "candidate_token_frac_pooled3": 0.05112881806108898, "place": "Ratmate, Belkotgadhi"}}, {"type": "Feature", "geometry": {"type": "Polygon", "coordinates": [[[85.029453, 27.845008], [85.055438, 27.845376], [85.055025, 27.868473], [85.029035, 27.868104], [85.029453, 27.845008]]]}, "properties": {"id": "v035", "kind": "river", "status": "ranked", "rank": 38, "candidate_token_frac": 0.05267581955729896, "valid_event_frac": 0.871337890625, "d_event_mean": 0.1635851413011551, "d_placebo_mean": 0.13581006228923798, "center_lonlat": [85.0422379, 27.8567411], "candidate_token_frac_pooled3": 0.02661810030820958, "place": "Ratmate, Belkotgadhi"}}, {"type": "Feature", "geometry": {"type": "Polygon", "coordinates": [[[85.016385, 27.838371], [85.042368, 27.838742], [85.041953, 27.861839], [85.015964, 27.861468], [85.016385, 27.838371]]]}, "properties": {"id": "v036", "kind": "river", "status": "ranked", "rank": 44, "candidate_token_frac": 0.03256552819698173, "valid_event_frac": 0.922119140625, "d_event_mean": 0.14728647470474243, "d_placebo_mean": 0.10060679167509079, "center_lonlat": [85.0291674, 27.8501058], "candidate_token_frac_pooled3": 0.020386550172094255, "place": "Taruka, Tarkeshwar"}}, {"type": "Feature", "geometry": {"type": "Polygon", "coordinates": [[[85.007773, 27.827583], [85.033753, 27.827955], [85.033336, 27.851052], [85.007351, 27.850679], [85.007773, 27.827583]]]}, "properties": {"id": "v037", "kind": "river", "status": "ranked", "rank": 40, "candidate_token_frac": 0.04143573502243336, "valid_event_frac": 0.925048828125, "d_event_mean": 0.15481166541576385, "d_placebo_mean": 0.08490926027297974, "center_lonlat": [85.020553, 27.8393181], "candidate_token_frac_pooled3": 0.022697281604645025, "place": "Taruka, Tarkeshwar"}}, {"type": "Feature", "geometry": {"type": "Polygon", "coordinates": [[[85.00451, 27.813292], [85.030486, 27.813665], [85.030069, 27.836762], [85.004087, 27.836388], [85.00451, 27.813292]]]}, "properties": {"id": "v038", "kind": "river", "status": "ranked", "rank": 22, "candidate_token_frac": 0.08148148148148149, "valid_event_frac": 0.889892578125, "d_event_mean": 0.19475767016410828, "d_placebo_mean": 0.08470865339040756, "center_lonlat": [85.0172883, 27.8250274], "candidate_token_frac_pooled3": 0.04197530864197531, "place": "Belkotgadhi"}}, {"type": "Feature", "geometry": {"type": "Polygon", "coordinates": [[[84.999291, 27.798588], [85.025264, 27.798962], [85.024846, 27.822059], [84.998868, 27.821685], [84.999291, 27.798588]]]}, "properties": {"id": "v039", "kind": "river", "status": "ranked", "rank": 12, "candidate_token_frac": 0.10592011412268189, "valid_event_frac": 0.6845703125, "d_event_mean": 0.210672065615654, "d_placebo_mean": 0.08750823885202408, "center_lonlat": [85.0120676, 27.810324], "candidate_token_frac_pooled3": 0.04457917261055635, "place": "Galchhi, Galchhi"}}, {"type": "Feature", "geometry": {"type": "Polygon", "coordinates": [[[84.975536, 27.793758], [85.001507, 27.794136], [85.001084, 27.817233], [84.975107, 27.816854], [84.975536, 27.793758]]]}, "properties": {"id": "v040", "kind": "river", "status": "ranked", "rank": 28, "candidate_token_frac": 0.0673703818689848, "valid_event_frac": 0.786376953125, "d_event_mean": 0.18909987807273865, "d_placebo_mean": 0.10537231713533401, "center_lonlat": [84.9883085, 27.805496], "candidate_token_frac_pooled3": 0.03135672151505744, "place": "Galchhi, Galchhi"}}, {"type": "Feature", "geometry": {"type": "Polygon", "coordinates": [[[85.379268, 28.264353], [85.405358, 28.26466], [85.405014, 28.28776], [85.378918, 28.287452], [85.379268, 28.264353]]]}, "properties": {"id": "v041", "kind": "lhende", "status": "ranked", "rank": 8, "candidate_token_frac": 0.11977401129943503, "valid_event_frac": 0.216064453125, "d_event_mean": 0.19782942533493042, "d_placebo_mean": 0.1513494998216629, "center_lonlat": [85.39213960269319, 28.276056586875097], "candidate_token_frac_pooled3": 0.08248587570621468, "place": "Rasuwa Gadhi, Gosaikunda"}}, {"type": "Feature", "geometry": {"type": "Polygon", "coordinates": [[[85.393406, 28.264409], [85.419497, 28.264713], [85.419155, 28.287813], [85.393059, 28.287509], [85.393406, 28.264409]]]}, "properties": {"id": "v042", "kind": "lhende", "status": "ranked", "rank": 39, "candidate_token_frac": 0.047409040793825796, "valid_event_frac": 0.221435546875, "d_event_mean": 0.21017737686634064, "d_placebo_mean": 0.2002166509628296, "center_lonlat": [85.40627929649673, 28.27611171006669], "candidate_token_frac_pooled3": 0.014332965821389196, "place": "Gosaikunda"}}, {"type": "Feature", "geometry": {"type": "Polygon", "coordinates": [[[85.427561, 28.31013], [85.453663, 28.310428], [85.453329, 28.333528], [85.427221, 28.33323], [85.427561, 28.31013]]]}, "properties": {"id": "v056", "kind": "hillslope", "status": "ranked", "rank": 7, "candidate_token_frac": 0.13155080213903744, "valid_event_frac": 0.228271484375, "d_event_mean": 0.21180787682533264, "d_placebo_mean": 0.16006344556808472, "center_lonlat": [85.44044330657674, 28.321829560973345], "candidate_token_frac_pooled3": 0.057754010695187166, "place": "Gosaikunda"}}, {"type": "Feature", "geometry": {"type": "Polygon", "coordinates": [[[85.427221, 28.33323], [85.453329, 28.333528], [85.452994, 28.356629], [85.42688, 28.35633], [85.427221, 28.33323]]]}, "properties": {"id": "v057", "kind": "hillslope", "status": "ranked", "rank": 21, "candidate_token_frac": 0.08288409703504043, "valid_event_frac": 0.3623046875, "d_event_mean": 0.2021258920431137, "d_placebo_mean": 0.11609774827957153, "center_lonlat": [85.44010591501316, 28.344929720822858], "candidate_token_frac_pooled3": 0.04784366576819407, "place": "Chaggang"}}, {"type": "Feature", "geometry": {"type": "Polygon", "coordinates": [[[85.453329, 28.333528], [85.479437, 28.333822], [85.479108, 28.356922], [85.452994, 28.356629], [85.453329, 28.333528]]]}, "properties": {"id": "v064", "kind": "hillslope", "status": "ranked", "rank": 2, "candidate_token_frac": 0.19217491369390102, "valid_event_frac": 0.212158203125, "d_event_mean": 0.22466416656970978, "d_placebo_mean": 0.1354658305644989, "center_lonlat": [85.46621680097404, 28.345225889574237], "candidate_token_frac_pooled3": 0.11852704257767549, "place": "Sal\u00ea"}}, {"type": "Feature", "geometry": {"type": "Polygon", "coordinates": [[[85.559629, 28.196063], [85.585705, 28.196335], [85.585401, 28.219437], [85.559319, 28.219164], [85.559629, 28.196063]]]}, "properties": {"id": "v086", "kind": "hillslope", "status": "ranked", "rank": 46, "candidate_token_frac": 0.017, "valid_event_frac": 0.244140625, "d_event_mean": 0.17864105105400085, "d_placebo_mean": 0.11565303802490234, "center_lonlat": [85.57251379553108, 28.207750185422476], "candidate_token_frac_pooled3": 0.009, "place": "Ky\u0101\u1e45ji\u1e45 Gomp\u0101, Gosaikunda"}}, {"type": "Feature", "geometry": {"type": "Polygon", "coordinates": [[[85.558387, 28.288469], [85.584486, 28.288743], [85.58418, 28.311844], [85.558076, 28.311571], [85.558387, 28.288469]]]}, "properties": {"id": "v090", "kind": "hillslope", "status": "ranked", "rank": 47, "candidate_token_frac": 0.012242268041237113, "valid_event_frac": 0.37890625, "d_event_mean": 0.15637314319610596, "d_placebo_mean": 0.14849691092967987, "center_lonlat": [85.57128218566064, 28.300157458167515], "candidate_token_frac_pooled3": 0.0032216494845360823, "place": "Gosaikunda"}}, {"type": "Feature", "geometry": {"type": "Polygon", "coordinates": [[[85.558076, 28.311571], [85.58418, 28.311844], [85.583874, 28.334946], [85.557764, 28.334672], [85.558076, 28.311571]]]}, "properties": {"id": "v091", "kind": "hillslope", "status": "ranked", "rank": 45, "candidate_token_frac": 0.017692852087756547, "valid_event_frac": 0.344970703125, "d_event_mean": 0.15000082552433014, "d_placebo_mean": 0.11790800094604492, "center_lonlat": [85.57097337297763, 28.323259073230737], "candidate_token_frac_pooled3": 0.009907997169143666, "place": "Qusumdo"}}]}