{"type": "FeatureCollection", "features": [{"type": "Feature", "properties": {"task_name": "JJ-OREUM-001 가마오름", "observation_time": "2026-09-05T00:00:00Z", "sample_category": "scored", "sample_number": 11, "sample_true_false": true, "oreum_id": "JJ-OREUM-001", "tile": "52SBB", "abstain_reason": null, "event_flag_frac": 0.1021}, "geometry": {"type": "Point", "coordinates": [126.2469945, 33.3055566]}}, {"type": "Feature", "properties": {"task_name": "JJ-OREUM-005 가문이오름", "observation_time": "2025-06-01T00:00:00Z", "sample_category": "abstain", "sample_number": -1, "sample_true_false": false, "oreum_id": "JJ-OREUM-005", "tile": "52SBB", "abstain_reason": "event pair unobservable: 2025", "event_flag_frac": null}, "geometry": {"type": "Point", "coordinates": [126.6881031, 33.4016666]}}, {"type": "Feature", "properties": {"task_name": "JJ-OREUM-007 가세오름", "observation_time": "2025-06-01T00:00:00Z", "sample_category": "scored", "sample_number": 53, "sample_true_false": false, "oreum_id": "JJ-OREUM-007", "tile": "52SBB", "abstain_reason": null, "event_flag_frac": 0.0285}, "geometry": {"type": "Point", "coordinates": [126.7813194, 33.3301417]}}, {"type": "Feature", "properties": {"task_name": "JJ-OREUM-008 가시오름", "observation_time": "2025-06-01T00:00:00Z", "sample_category": "scored", "sample_number": 133, "sample_true_false": false, "oreum_id": "JJ-OREUM-008", "tile": "51SYS", "abstain_reason": null, "event_flag_frac": 0.0035}, "geometry": {"type": "Point", "coordinates": [126.2431521, 33.2470481]}}, {"type": "Feature", "properties": {"task_name": "JJ-OREUM-009 각시바위", "observation_time": "2025-06-01T00:00:00Z", "sample_category": "abstain", "sample_number": -1, "sample_true_false": false, "oreum_id": "JJ-OREUM-009", "tile": "52SBB", "abstain_reason": "event pair unobservable: 2025", "event_flag_frac": null}, "geometry": {"type": "Point", "coordinates": [126.52611, 33.27678]}}, {"type": "Feature", "properties": {"task_name": "JJ-OREUM-010 감낭오름", "observation_time": "2025-06-01T00:00:00Z", "sample_category": "abstain", "sample_number": -1, "sample_true_false": false, "oreum_id": "JJ-OREUM-010", "tile": "52SBB", "abstain_reason": "event pair unobservable: 2025", "event_flag_frac": null}, "geometry": {"type": "Point", "coordinates": [126.3501773, 33.3249271]}}, {"type": "Feature", "properties": {"task_name": "JJ-OREUM-011 감은이오름", "observation_time": "2025-06-01T00:00:00Z", "sample_category": "scored", "sample_number": 80, "sample_true_false": true, "oreum_id": "JJ-OREUM-011", "tile": "52SBC", "abstain_reason": null, "event_flag_frac": 0.0172}, "geometry": {"type": "Point", "coordinates": [126.7411155, 33.423607]}}, {"type": "Feature", "properties": {"task_name": "JJ-OREUM-012 갑선이오름", "observation_time": "2025-06-01T00:00:00Z", "sample_category": "scored", "sample_number": 89, "sample_true_false": true, "oreum_id": "JJ-OREUM-012", "tile": "52SBB", "abstain_reason": null, "event_flag_frac": 0.0136}, "geometry": {"type": "Point", "coordinates": [126.7816683, 33.3608555]}}, {"type": "Feature", "properties": {"task_name": "JJ-OREUM-013 개오름", "observation_time": "2025-06-01T00:00:00Z", "sample_category": "scored", "sample_number": 84, "sample_true_false": false, "oreum_id": "JJ-OREUM-013", "tile": "52SBC", "abstain_reason": null, "event_flag_frac": 0.0141}, "geometry": {"type": "Point", "coordinates": [126.7719182, 33.4226308]}}, {"type": "Feature", "properties": {"task_name": "JJ-OREUM-016 갯거리오름", "observation_time": "2025-06-01T00:00:00Z", "sample_category": "scored", "sample_number": 121, "sample_true_false": false, "oreum_id": "JJ-OREUM-016", "tile": "51SYT", "abstain_reason": null, "event_flag_frac": 0.005}, "geometry": {"type": "Point", "coordinates": [126.2927168, 33.3757714]}}, {"type": "Feature", "properties": {"task_name": "JJ-OREUM-019 거린사슴", "observation_time": "2025-06-01T00:00:00Z", "sample_category": "abstain", "sample_number": -1, "sample_true_false": false, "oreum_id": "JJ-OREUM-019", "tile": "52SBB", "abstain_reason": "event pair unobservable: 2025, 2026", "event_flag_frac": null}, "geometry": {"type": "Point", "coordinates": [126.4542361, 33.3096056]}}, {"type": "Feature", "properties": {"task_name": "JJ-OREUM-020 거린오름", "observation_time": "2025-06-01T00:00:00Z", "sample_category": "abstain", "sample_number": -1, "sample_true_false": false, "oreum_id": "JJ-OREUM-020", "tile": "52SBB", "abstain_reason": "event pair unobservable: 2025", "event_flag_frac": null}, "geometry": {"type": "Point", "coordinates": [126.3319606, 33.3031239]}}, {"type": "Feature", "properties": {"task_name": "JJ-OREUM-021 거문오름", "observation_time": "2025-06-01T00:00:00Z", "sample_category": "abstain", "sample_number": -1, "sample_true_false": false, "oreum_id": "JJ-OREUM-021", "tile": "52SBC", "abstain_reason": "event pair unobservable: 2025", "event_flag_frac": null}, "geometry": {"type": "Point", "coordinates": [126.7182215, 33.4547869]}}, {"type": "Feature", "properties": {"task_name": "JJ-OREUM-022 거미오름", "observation_time": "2025-06-01T00:00:00Z", "sample_category": "scored", "sample_number": 60, "sample_true_false": false, "oreum_id": "JJ-OREUM-022", "tile": "52SBC", "abstain_reason": null, "event_flag_frac": 0.0239}, "geometry": {"type": "Point", "coordinates": [126.8035498, 33.4488981]}}, {"type": "Feature", "properties": {"task_name": "JJ-OREUM-024 거친오름", "observation_time": "2025-06-01T00:00:00Z", "sample_category": "abstain", "sample_number": -1, "sample_true_false": false, "oreum_id": "JJ-OREUM-024", "tile": "52SBC", "abstain_reason": "event pair unobservable: 2025", "event_flag_frac": null}, "geometry": {"type": "Point", "coordinates": [126.7405561, 33.4596557]}}, {"type": "Feature", "properties": {"task_name": "JJ-OREUM-025 거친오름", "observation_time": "2025-06-01T00:00:00Z", "sample_category": "abstain", "sample_number": -1, "sample_true_false": false, "oreum_id": "JJ-OREUM-025", "tile": "52SBC", "abstain_reason": "event pair unobservable: 2025", "event_flag_frac": null}, "geometry": {"type": "Point", "coordinates": [126.6201097, 33.4447383]}}, {"type": "Feature", "properties": {"task_name": "JJ-OREUM-026 걸리오름", "observation_time": "2025-06-01T00:00:00Z", "sample_category": "scored", "sample_number": 93, "sample_true_false": false, "oreum_id": "JJ-OREUM-026", "tile": "52SBC", "abstain_reason": null, "event_flag_frac": 0.0129}, "geometry": {"type": "Point", "coordinates": [126.8154541, 33.3764452]}}, {"type": "Feature", "properties": {"task_name": "JJ-OREUM-027 걸서악(동걸세)", "observation_time": "2025-06-01T00:00:00Z", "sample_category": "abstain", "sample_number": -1, "sample_true_false": false, "oreum_id": "JJ-OREUM-027", "tile": "52SBB", "abstain_reason": "event pair unobservable: 2026", "event_flag_frac": null}, "geometry": {"type": "Point", "coordinates": [126.6197944, 33.2823139]}}, {"type": "Feature", "properties": {"task_name": "JJ-OREUM-031 검은들먹오름", "observation_time": "2025-06-01T00:00:00Z", "sample_category": "scored", "sample_number": 25, "sample_true_false": true, "oreum_id": "JJ-OREUM-031", "tile": "52SBC", "abstain_reason": null, "event_flag_frac": 0.0627}, "geometry": {"type": "Point", "coordinates": [126.4063162, 33.3625652]}}, {"type": "Feature", "properties": {"task_name": "JJ-OREUM-032 검은오름", "observation_time": "2025-06-01T00:00:00Z", "sample_category": "abstain", "sample_number": -1, "sample_true_false": false, "oreum_id": "JJ-OREUM-032", "tile": "52SBC", "abstain_reason": "no cube", "event_flag_frac": null}, "geometry": {"type": "Point", "coordinates": [126.4977501, 33.4427975]}}, {"type": "Feature", "properties": {"task_name": "JJ-OREUM-033 고근산", "observation_time": "2025-06-01T00:00:00Z", "sample_category": "scored", "sample_number": 82, "sample_true_false": true, "oreum_id": "JJ-OREUM-033", "tile": "52SBB", "abstain_reason": null, "event_flag_frac": 0.015}, "geometry": {"type": "Point", "coordinates": [126.5137393, 33.2668804]}}, {"type": "Feature", "properties": {"task_name": "JJ-OREUM-034 고내봉", "observation_time": "2025-06-01T00:00:00Z", "sample_category": "scored", "sample_number": 138, "sample_true_false": true, "oreum_id": "JJ-OREUM-034", "tile": "52SBC", "abstain_reason": null, "event_flag_frac": 0.0023}, "geometry": {"type": "Point", "coordinates": [126.3414694, 33.4593322]}}, {"type": "Feature", "properties": {"task_name": "JJ-OREUM-036 고이악", "observation_time": "2025-06-01T00:00:00Z", "sample_category": "scored", "sample_number": 27, "sample_true_false": true, "oreum_id": "JJ-OREUM-036", "tile": "52SBB", "abstain_reason": null, "event_flag_frac": 0.0613}, "geometry": {"type": "Point", "coordinates": [126.6605969, 33.3190332]}}, {"type": "Feature", "properties": {"task_name": "JJ-OREUM-039 과오름", "observation_time": "2025-06-01T00:00:00Z", "sample_category": "scored", "sample_number": 135, "sample_true_false": false, "oreum_id": "JJ-OREUM-039", "tile": "51SYT", "abstain_reason": null, "event_flag_frac": 0.0027}, "geometry": {"type": "Point", "coordinates": [126.3231774, 33.446247]}}, {"type": "Feature", "properties": {"task_name": "JJ-OREUM-040 광이오름", "observation_time": "2025-06-01T00:00:00Z", "sample_category": "scored", "sample_number": 91, "sample_true_false": true, "oreum_id": "JJ-OREUM-040", "tile": "52SBC", "abstain_reason": null, "event_flag_frac": 0.0134}, "geometry": {"type": "Point", "coordinates": [126.4954659, 33.4680422]}}, {"type": "Feature", "properties": {"task_name": "JJ-OREUM-041 괭이모루", "observation_time": "2025-06-01T00:00:00Z", "sample_category": "abstain", "sample_number": -1, "sample_true_false": false, "oreum_id": "JJ-OREUM-041", "tile": "52SBC", "abstain_reason": "no cube", "event_flag_frac": null}, "geometry": {"type": "Point", "coordinates": [126.780749, 33.4618609]}}, {"type": "Feature", "properties": {"task_name": "JJ-OREUM-043 괴오름", "observation_time": "2025-06-01T00:00:00Z", "sample_category": "scored", "sample_number": 34, "sample_true_false": true, "oreum_id": "JJ-OREUM-043", "tile": "52SBB", "abstain_reason": null, "event_flag_frac": 0.0495}, "geometry": {"type": "Point", "coordinates": [126.3794774, 33.3585579]}}, {"type": "Feature", "properties": {"task_name": "JJ-OREUM-045 구두리오름", "observation_time": "2025-06-01T00:00:00Z", "sample_category": "abstain", "sample_number": -1, "sample_true_false": false, "oreum_id": "JJ-OREUM-045", "tile": "52SBB", "abstain_reason": "event pair unobservable: 2025", "event_flag_frac": null}, "geometry": {"type": "Point", "coordinates": [126.6878956, 33.4099502]}}, {"type": "Feature", "properties": {"task_name": "JJ-OREUM-047 군산", "observation_time": "2025-06-01T00:00:00Z", "sample_category": "scored", "sample_number": 56, "sample_true_false": false, "oreum_id": "JJ-OREUM-047", "tile": "52SBB", "abstain_reason": null, "event_flag_frac": 0.0263}, "geometry": {"type": "Point", "coordinates": [126.3702135, 33.253086]}}, {"type": "Feature", "properties": {"task_name": "JJ-OREUM-048 굽은오름", "observation_time": "2025-06-01T00:00:00Z", "sample_category": "abstain", "sample_number": -1, "sample_true_false": false, "oreum_id": "JJ-OREUM-048", "tile": "51SYS", "abstain_reason": "event pair unobservable: 2025", "event_flag_frac": null}, "geometry": {"type": "Point", "coordinates": [126.212275, 33.2991306]}}, {"type": "Feature", "properties": {"task_name": "JJ-OREUM-049 궁대악", "observation_time": "2025-06-01T00:00:00Z", "sample_category": "scored", "sample_number": 96, "sample_true_false": false, "oreum_id": "JJ-OREUM-049", "tile": "52SBC", "abstain_reason": null, "event_flag_frac": 0.0113}, "geometry": {"type": "Point", "coordinates": [126.8231061, 33.4355941]}}, {"type": "Feature", "properties": {"task_name": "JJ-OREUM-050 궁산", "observation_time": "2025-06-01T00:00:00Z", "sample_category": "scored", "sample_number": 97, "sample_true_false": true, "oreum_id": "JJ-OREUM-050", "tile": "52SBB", "abstain_reason": null, "event_flag_frac": 0.0112}, "geometry": {"type": "Point", "coordinates": [126.4806147, 33.2638635]}}, {"type": "Feature", "properties": {"task_name": "JJ-OREUM-052 궤펜이", "observation_time": "2025-06-01T00:00:00Z", "sample_category": "abstain", "sample_number": -1, "sample_true_false": false, "oreum_id": "JJ-OREUM-052", "tile": "52SBB", "abstain_reason": "event pair unobservable: 2025", "event_flag_frac": null}, "geometry": {"type": "Point", "coordinates": [126.6338977, 33.3941071]}}, {"type": "Feature", "properties": {"task_name": "JJ-OREUM-053 궷물오름", "observation_time": "2025-06-01T00:00:00Z", "sample_category": "abstain", "sample_number": -1, "sample_true_false": false, "oreum_id": "JJ-OREUM-053", "tile": "52SBB", "abstain_reason": "no cube", "event_flag_frac": null}, "geometry": {"type": "Point", "coordinates": [126.405954, 33.396976]}}, {"type": "Feature", "properties": {"task_name": "JJ-OREUM-055 금산", "observation_time": "2025-06-01T00:00:00Z", "sample_category": "scored", "sample_number": 112, "sample_true_false": true, "oreum_id": "JJ-OREUM-055", "tile": "51SYS", "abstain_reason": null, "event_flag_frac": 0.006}, "geometry": {"type": "Point", "coordinates": [126.2853977, 33.2351332]}}, {"type": "Feature", "properties": {"task_name": "JJ-OREUM-056 금오름", "observation_time": "2026-09-05T00:00:00Z", "sample_category": "scored", "sample_number": 2, "sample_true_false": true, "oreum_id": "JJ-OREUM-056", "tile": "52SBB", "abstain_reason": null, "event_flag_frac": 0.2027}, "geometry": {"type": "Point", "coordinates": [126.3058247, 33.3546336]}}, {"type": "Feature", "properties": {"task_name": "JJ-OREUM-059 나시리오름", "observation_time": "2025-06-01T00:00:00Z", "sample_category": "abstain", "sample_number": -1, "sample_true_false": false, "oreum_id": "JJ-OREUM-059", "tile": "52SBB", "abstain_reason": "no cube", "event_flag_frac": null}, "geometry": {"type": "Point", "coordinates": [126.833968, 33.4145833]}}, {"type": "Feature", "properties": {"task_name": "JJ-OREUM-060 남산봉", "observation_time": "2025-06-01T00:00:00Z", "sample_category": "scored", "sample_number": 14, "sample_true_false": false, "oreum_id": "JJ-OREUM-060", "tile": "52SBB", "abstain_reason": null, "event_flag_frac": 0.0932}, "geometry": {"type": "Point", "coordinates": [126.8124489, 33.3833961]}}, {"type": "Feature", "properties": {"task_name": "JJ-OREUM-061 남송이오름", "observation_time": "2025-06-01T00:00:00Z", "sample_category": "abstain", "sample_number": -1, "sample_true_false": false, "oreum_id": "JJ-OREUM-061", "tile": "51SYS", "abstain_reason": "event pair unobservable: 2025", "event_flag_frac": null}, "geometry": {"type": "Point", "coordinates": [126.3065836, 33.3121964]}}, {"type": "Feature", "properties": {"task_name": "JJ-OREUM-065 넙거리", "observation_time": "2025-06-01T00:00:00Z", "sample_category": "abstain", "sample_number": -1, "sample_true_false": false, "oreum_id": "JJ-OREUM-065", "tile": "52SBB", "abstain_reason": "event pair unobservable: 2025", "event_flag_frac": null}, "geometry": {"type": "Point", "coordinates": [126.6536338, 33.3357241]}}, {"type": "Feature", "properties": {"task_name": "JJ-OREUM-070 노로오름", "observation_time": "2025-06-01T00:00:00Z", "sample_category": "abstain", "sample_number": -1, "sample_true_false": false, "oreum_id": "JJ-OREUM-070", "tile": "52SBB", "abstain_reason": "no cube", "event_flag_frac": null}, "geometry": {"type": "Point", "coordinates": [126.4393034, 33.3662545]}}, {"type": "Feature", "properties": {"task_name": "JJ-OREUM-072 녹남봉", "observation_time": "2025-06-01T00:00:00Z", "sample_category": "abstain", "sample_number": -1, "sample_true_false": false, "oreum_id": "JJ-OREUM-072", "tile": "51SYS", "abstain_reason": "event pair unobservable: 2025", "event_flag_frac": null}, "geometry": {"type": "Point", "coordinates": [126.1958761, 33.2793603]}}, {"type": "Feature", "properties": {"task_name": "JJ-OREUM-073 녹하지악", "observation_time": "2025-06-01T00:00:00Z", "sample_category": "abstain", "sample_number": -1, "sample_true_false": false, "oreum_id": "JJ-OREUM-073", "tile": "52SBB", "abstain_reason": "event pair unobservable: 2025", "event_flag_frac": null}, "geometry": {"type": "Point", "coordinates": [126.4308806, 33.3046417]}}, {"type": "Feature", "properties": {"task_name": "JJ-OREUM-074 논고악", "observation_time": "2025-06-01T00:00:00Z", "sample_category": "abstain", "sample_number": -1, "sample_true_false": false, "oreum_id": "JJ-OREUM-074", "tile": "52SBB", "abstain_reason": "event pair unobservable: 2025", "event_flag_frac": null}, "geometry": {"type": "Point", "coordinates": [126.6104757, 33.3596491]}}, {"type": "Feature", "properties": {"task_name": "JJ-OREUM-075 논오름", "observation_time": "2025-06-01T00:00:00Z", "sample_category": "scored", "sample_number": 90, "sample_true_false": false, "oreum_id": "JJ-OREUM-075", "tile": "52SBB", "abstain_reason": null, "event_flag_frac": 0.0136}, "geometry": {"type": "Point", "coordinates": [126.3376107, 33.27132]}}, {"type": "Feature", "properties": {"task_name": "JJ-OREUM-077 높은오름", "observation_time": "2025-06-01T00:00:00Z", "sample_category": "scored", "sample_number": 83, "sample_true_false": true, "oreum_id": "JJ-OREUM-077", "tile": "52SBC", "abstain_reason": null, "event_flag_frac": 0.0143}, "geometry": {"type": "Point", "coordinates": [126.7930234, 33.4564687]}}, {"type": "Feature", "properties": {"task_name": "JJ-OREUM-079 누운오름", "observation_time": "2026-09-05T00:00:00Z", "sample_category": "scored", "sample_number": 6, "sample_true_false": false, "oreum_id": "JJ-OREUM-079", "tile": "52SBB", "abstain_reason": null, "event_flag_frac": 0.1339}, "geometry": {"type": "Point", "coordinates": [126.3312331, 33.3623643]}}, {"type": "Feature", "properties": {"task_name": "JJ-OREUM-081 눈오름", "observation_time": "2025-06-01T00:00:00Z", "sample_category": "scored", "sample_number": 131, "sample_true_false": true, "oreum_id": "JJ-OREUM-081", "tile": "52SBC", "abstain_reason": null, "event_flag_frac": 0.0039}, "geometry": {"type": "Point", "coordinates": [126.3702778, 33.43965]}}, {"type": "Feature", "properties": {"task_name": "JJ-OREUM-082 눈오름", "observation_time": "2025-06-01T00:00:00Z", "sample_category": "scored", "sample_number": 128, "sample_true_false": true, "oreum_id": "JJ-OREUM-082", "tile": "52SBC", "abstain_reason": null, "event_flag_frac": 0.0044}, "geometry": {"type": "Point", "coordinates": [126.4747987, 33.4594672]}}, {"type": "Feature", "properties": {"task_name": "JJ-OREUM-083 느지리오름", "observation_time": "2025-06-01T00:00:00Z", "sample_category": "scored", "sample_number": 95, "sample_true_false": false, "oreum_id": "JJ-OREUM-083", "tile": "51SYT", "abstain_reason": null, "event_flag_frac": 0.0122}, "geometry": {"type": "Point", "coordinates": [126.2615851, 33.3665967]}}, {"type": "Feature", "properties": {"task_name": "JJ-OREUM-085 능화오름", "observation_time": "2025-06-01T00:00:00Z", "sample_category": "abstain", "sample_number": -1, "sample_true_false": false, "oreum_id": "JJ-OREUM-085", "tile": "52SBB", "abstain_reason": "event pair unobservable: 2025", "event_flag_frac": null}, "geometry": {"type": "Point", "coordinates": [126.5341306, 33.4002094]}}, {"type": "Feature", "properties": {"task_name": "JJ-OREUM-086 다랑쉬", "observation_time": "2025-06-01T00:00:00Z", "sample_category": "abstain", "sample_number": -1, "sample_true_false": false, "oreum_id": "JJ-OREUM-086", "tile": "52SBC", "abstain_reason": "event pair unobservable: 2025", "event_flag_frac": null}, "geometry": {"type": "Point", "coordinates": [126.8215284, 33.4777119]}}, {"type": "Feature", "properties": {"task_name": "JJ-OREUM-090 단산", "observation_time": "2025-06-01T00:00:00Z", "sample_category": "scored", "sample_number": 150, "sample_true_false": true, "oreum_id": "JJ-OREUM-090", "tile": "51SYS", "abstain_reason": null, "event_flag_frac": 0.0}, "geometry": {"type": "Point", "coordinates": [126.2883304, 33.2428728]}}, {"type": "Feature", "properties": {"task_name": "JJ-OREUM-092 당산봉", "observation_time": "2025-06-01T00:00:00Z", "sample_category": "scored", "sample_number": 87, "sample_true_false": true, "oreum_id": "JJ-OREUM-092", "tile": "51SYS", "abstain_reason": null, "event_flag_frac": 0.0139}, "geometry": {"type": "Point", "coordinates": [126.1726059, 33.307918]}}, {"type": "Feature", "properties": {"task_name": "JJ-OREUM-093 당산봉 알봉", "observation_time": "2025-06-01T00:00:00Z", "sample_category": "scored", "sample_number": 98, "sample_true_false": true, "oreum_id": "JJ-OREUM-093", "tile": "51SYS", "abstain_reason": null, "event_flag_frac": 0.0106}, "geometry": {"type": "Point", "coordinates": [126.1701472, 33.3117136]}}, {"type": "Feature", "properties": {"task_name": "JJ-OREUM-094 당오름", "observation_time": "2025-06-01T00:00:00Z", "sample_category": "scored", "sample_number": 19, "sample_true_false": true, "oreum_id": "JJ-OREUM-094", "tile": "52SBB", "abstain_reason": null, "event_flag_frac": 0.0873}, "geometry": {"type": "Point", "coordinates": [126.3357562, 33.3340724]}}, {"type": "Feature", "properties": {"task_name": "JJ-OREUM-095 당오름", "observation_time": "2025-06-01T00:00:00Z", "sample_category": "abstain", "sample_number": -1, "sample_true_false": false, "oreum_id": "JJ-OREUM-095", "tile": "52SBC", "abstain_reason": "event pair unobservable: 2025", "event_flag_frac": null}, "geometry": {"type": "Point", "coordinates": [126.7786076, 33.4666281]}}, {"type": "Feature", "properties": {"task_name": "JJ-OREUM-096 당오름", "observation_time": "2025-06-01T00:00:00Z", "sample_category": "scored", "sample_number": 99, "sample_true_false": false, "oreum_id": "JJ-OREUM-096", "tile": "52SBC", "abstain_reason": null, "event_flag_frac": 0.01}, "geometry": {"type": "Point", "coordinates": [126.6876166, 33.4785734]}}, {"type": "Feature", "properties": {"task_name": "JJ-OREUM-097 대록산", "observation_time": "2025-06-01T00:00:00Z", "sample_category": "scored", "sample_number": 43, "sample_true_false": true, "oreum_id": "JJ-OREUM-097", "tile": "52SBB", "abstain_reason": null, "event_flag_frac": 0.038}, "geometry": {"type": "Point", "coordinates": [126.7291545, 33.3995242]}}, {"type": "Feature", "properties": {"task_name": "JJ-OREUM-099 대병악", "observation_time": "2025-06-01T00:00:00Z", "sample_category": "abstain", "sample_number": -1, "sample_true_false": false, "oreum_id": "JJ-OREUM-099", "tile": "52SBB", "abstain_reason": "event pair unobservable: 2025", "event_flag_frac": null}, "geometry": {"type": "Point", "coordinates": [126.3682261, 33.3062741]}}, {"type": "Feature", "properties": {"task_name": "JJ-OREUM-100 대수산봉", "observation_time": "2025-06-01T00:00:00Z", "sample_category": "scored", "sample_number": 139, "sample_true_false": true, "oreum_id": "JJ-OREUM-100", "tile": "52SBC", "abstain_reason": null, "event_flag_frac": 0.0023}, "geometry": {"type": "Point", "coordinates": [126.9012957, 33.4400169]}}, {"type": "Feature", "properties": {"task_name": "JJ-OREUM-101 대왕산", "observation_time": "2025-06-01T00:00:00Z", "sample_category": "scored", "sample_number": 127, "sample_true_false": false, "oreum_id": "JJ-OREUM-101", "tile": "52SBC", "abstain_reason": null, "event_flag_frac": 0.0045}, "geometry": {"type": "Point", "coordinates": [126.8726727, 33.4564559]}}, {"type": "Feature", "properties": {"task_name": "JJ-OREUM-102 대천이오름", "observation_time": "2025-06-01T00:00:00Z", "sample_category": "scored", "sample_number": 49, "sample_true_false": true, "oreum_id": "JJ-OREUM-102", "tile": "52SBC", "abstain_reason": null, "event_flag_frac": 0.0325}, "geometry": {"type": "Point", "coordinates": [126.6850443, 33.4513674]}}, {"type": "Feature", "properties": {"task_name": "JJ-OREUM-104 도너리오름", "observation_time": "2026-09-05T00:00:00Z", "sample_category": "scored", "sample_number": 3, "sample_true_false": true, "oreum_id": "JJ-OREUM-104", "tile": "52SBB", "abstain_reason": null, "event_flag_frac": 0.1917}, "geometry": {"type": "Point", "coordinates": [126.3212291, 33.326222]}}, {"type": "Feature", "properties": {"task_name": "JJ-OREUM-105 도두봉", "observation_time": "2025-06-01T00:00:00Z", "sample_category": "scored", "sample_number": 142, "sample_true_false": false, "oreum_id": "JJ-OREUM-105", "tile": "52SBC", "abstain_reason": null, "event_flag_frac": 0.0015}, "geometry": {"type": "Point", "coordinates": [126.4683629, 33.5080318]}}, {"type": "Feature", "properties": {"task_name": "JJ-OREUM-106 도청오름", "observation_time": "2025-06-01T00:00:00Z", "sample_category": "scored", "sample_number": 62, "sample_true_false": false, "oreum_id": "JJ-OREUM-106", "tile": "52SBB", "abstain_reason": null, "event_flag_frac": 0.0227}, "geometry": {"type": "Point", "coordinates": [126.815162, 33.3150392]}}, {"type": "Feature", "properties": {"task_name": "JJ-OREUM-107 독자봉", "observation_time": "2025-06-01T00:00:00Z", "sample_category": "scored", "sample_number": 66, "sample_true_false": true, "oreum_id": "JJ-OREUM-107", "tile": "52SBB", "abstain_reason": null, "event_flag_frac": 0.0206}, "geometry": {"type": "Point", "coordinates": [126.8535524, 33.3880033]}}, {"type": "Feature", "properties": {"task_name": "JJ-OREUM-108 돈두미오름", "observation_time": "2025-06-01T00:00:00Z", "sample_category": "scored", "sample_number": 77, "sample_true_false": false, "oreum_id": "JJ-OREUM-108", "tile": "51SYS", "abstain_reason": null, "event_flag_frac": 0.0174}, "geometry": {"type": "Point", "coordinates": [126.2102703, 33.249893]}}, {"type": "Feature", "properties": {"task_name": "JJ-OREUM-110 돌오름", "observation_time": "2025-06-01T00:00:00Z", "sample_category": "abstain", "sample_number": -1, "sample_true_false": false, "oreum_id": "JJ-OREUM-110", "tile": "52SBC", "abstain_reason": "no cube", "event_flag_frac": null}, "geometry": {"type": "Point", "coordinates": [126.4297583, 33.337155]}}, {"type": "Feature", "properties": {"task_name": "JJ-OREUM-112 돔박이", "observation_time": "2025-06-01T00:00:00Z", "sample_category": "scored", "sample_number": 22, "sample_true_false": true, "oreum_id": "JJ-OREUM-112", "tile": "52SBB", "abstain_reason": null, "event_flag_frac": 0.0705}, "geometry": {"type": "Point", "coordinates": [126.3634711, 33.3399161]}}, {"type": "Feature", "properties": {"task_name": "JJ-OREUM-113 돔배오름", "observation_time": "2025-06-01T00:00:00Z", "sample_category": "abstain", "sample_number": -1, "sample_true_false": false, "oreum_id": "JJ-OREUM-113", "tile": "52SBC", "abstain_reason": "event pair unobservable: 2025", "event_flag_frac": null}, "geometry": {"type": "Point", "coordinates": [126.668503, 33.4293036]}}, {"type": "Feature", "properties": {"task_name": "JJ-OREUM-114 동수악", "observation_time": "2025-06-01T00:00:00Z", "sample_category": "abstain", "sample_number": -1, "sample_true_false": false, "oreum_id": "JJ-OREUM-114", "tile": "52SBB", "abstain_reason": "event pair unobservable: 2025", "event_flag_frac": null}, "geometry": {"type": "Point", "coordinates": [126.6276055, 33.3612074]}}, {"type": "Feature", "properties": {"task_name": "JJ-OREUM-115 동알오름", "observation_time": "2025-06-01T00:00:00Z", "sample_category": "scored", "sample_number": 116, "sample_true_false": false, "oreum_id": "JJ-OREUM-115", "tile": "51SYS", "abstain_reason": null, "event_flag_frac": 0.0057}, "geometry": {"type": "Point", "coordinates": [126.2881294, 33.2074283]}}, {"type": "Feature", "properties": {"task_name": "JJ-OREUM-118 둔지봉", "observation_time": "2025-06-01T00:00:00Z", "sample_category": "abstain", "sample_number": -1, "sample_true_false": false, "oreum_id": "JJ-OREUM-118", "tile": "52SBC", "abstain_reason": "event pair unobservable: 2025", "event_flag_frac": null}, "geometry": {"type": "Point", "coordinates": [126.795398, 33.5027463]}}, {"type": "Feature", "properties": {"task_name": "JJ-OREUM-119 뒤굽은이", "observation_time": "2025-06-01T00:00:00Z", "sample_category": "abstain", "sample_number": -1, "sample_true_false": false, "oreum_id": "JJ-OREUM-119", "tile": "52SBC", "abstain_reason": "event pair unobservable: 2025", "event_flag_frac": null}, "geometry": {"type": "Point", "coordinates": [126.7666957, 33.4776833]}}, {"type": "Feature", "properties": {"task_name": "JJ-OREUM-122 따라비", "observation_time": "2025-06-01T00:00:00Z", "sample_category": "scored", "sample_number": 39, "sample_true_false": true, "oreum_id": "JJ-OREUM-122", "tile": "52SBB", "abstain_reason": null, "event_flag_frac": 0.0429}, "geometry": {"type": "Point", "coordinates": [126.7524586, 33.38819]}}, {"type": "Feature", "properties": {"task_name": "JJ-OREUM-123 마보기", "observation_time": "2025-06-01T00:00:00Z", "sample_category": "abstain", "sample_number": -1, "sample_true_false": false, "oreum_id": "JJ-OREUM-123", "tile": "52SBB", "abstain_reason": "event pair unobservable: 2025", "event_flag_frac": null}, "geometry": {"type": "Point", "coordinates": [126.3929972, 33.3203806]}}, {"type": "Feature", "properties": {"task_name": "JJ-OREUM-124 마오름", "observation_time": "2025-06-01T00:00:00Z", "sample_category": "scored", "sample_number": 123, "sample_true_false": false, "oreum_id": "JJ-OREUM-124", "tile": "51SYT", "abstain_reason": null, "event_flag_frac": 0.0049}, "geometry": {"type": "Point", "coordinates": [126.2436556, 33.3380556]}}, {"type": "Feature", "properties": {"task_name": "JJ-OREUM-125 마은이", "observation_time": "2025-06-01T00:00:00Z", "sample_category": "abstain", "sample_number": -1, "sample_true_false": false, "oreum_id": "JJ-OREUM-125", "tile": "52SBB", "abstain_reason": "event pair unobservable: 2025", "event_flag_frac": null}, "geometry": {"type": "Point", "coordinates": [126.6586028, 33.3796639]}}, {"type": "Feature", "properties": {"task_name": "JJ-OREUM-126 마은이옆", "observation_time": "2025-06-01T00:00:00Z", "sample_category": "abstain", "sample_number": -1, "sample_true_false": false, "oreum_id": "JJ-OREUM-126", "tile": "52SBB", "abstain_reason": "event pair unobservable: 2025", "event_flag_frac": null}, "geometry": {"type": "Point", "coordinates": [126.6663492, 33.391909]}}, {"type": "Feature", "properties": {"task_name": "JJ-OREUM-127 마중오름", "observation_time": "2025-06-01T00:00:00Z", "sample_category": "scored", "sample_number": 15, "sample_true_false": true, "oreum_id": "JJ-OREUM-127", "tile": "52SBB", "abstain_reason": null, "event_flag_frac": 0.0924}, "geometry": {"type": "Point", "coordinates": [126.2706083, 33.3346528]}}, {"type": "Feature", "properties": {"task_name": "JJ-OREUM-128 만세동산", "observation_time": "2025-06-01T00:00:00Z", "sample_category": "scored", "sample_number": 45, "sample_true_false": true, "oreum_id": "JJ-OREUM-128", "tile": "52SBC", "abstain_reason": null, "event_flag_frac": 0.0369}, "geometry": {"type": "Point", "coordinates": [126.5060188, 33.368193]}}, {"type": "Feature", "properties": {"task_name": "JJ-OREUM-129 말젯오름", "observation_time": "2025-06-01T00:00:00Z", "sample_category": "scored", "sample_number": 148, "sample_true_false": false, "oreum_id": "JJ-OREUM-129", "tile": "51SYT", "abstain_reason": null, "event_flag_frac": 0.001}, "geometry": {"type": "Point", "coordinates": [126.31548, 33.44996]}}, {"type": "Feature", "properties": {"task_name": "JJ-OREUM-130 말찻", "observation_time": "2025-06-01T00:00:00Z", "sample_category": "abstain", "sample_number": -1, "sample_true_false": false, "oreum_id": "JJ-OREUM-130", "tile": "52SBB", "abstain_reason": "event pair unobservable: 2025", "event_flag_frac": null}, "geometry": {"type": "Point", "coordinates": [126.6542524, 33.4005161]}}, {"type": "Feature", "properties": {"task_name": "JJ-OREUM-131 망동산", "observation_time": "2025-06-01T00:00:00Z", "sample_category": "scored", "sample_number": 86, "sample_true_false": false, "oreum_id": "JJ-OREUM-131", "tile": "52SCC", "abstain_reason": null, "event_flag_frac": 0.014}, "geometry": {"type": "Point", "coordinates": [126.9623445, 33.4979955]}}, {"type": "Feature", "properties": {"task_name": "JJ-OREUM-132 망밭", "observation_time": "2025-06-01T00:00:00Z", "sample_category": "scored", "sample_number": 137, "sample_true_false": false, "oreum_id": "JJ-OREUM-132", "tile": "52SBB", "abstain_reason": null, "event_flag_frac": 0.0024}, "geometry": {"type": "Point", "coordinates": [126.5241889, 33.2419944]}}, {"type": "Feature", "properties": {"task_name": "JJ-OREUM-133 매오름", "observation_time": "2025-06-01T00:00:00Z", "sample_category": "scored", "sample_number": 40, "sample_true_false": false, "oreum_id": "JJ-OREUM-133", "tile": "52SBB", "abstain_reason": null, "event_flag_frac": 0.0414}, "geometry": {"type": "Point", "coordinates": [126.8135198, 33.3172633]}}, {"type": "Feature", "properties": {"task_name": "JJ-OREUM-134 머체오름", "observation_time": "2025-06-01T00:00:00Z", "sample_category": "abstain", "sample_number": -1, "sample_true_false": false, "oreum_id": "JJ-OREUM-134", "tile": "52SBB", "abstain_reason": "event pair unobservable: 2025", "event_flag_frac": null}, "geometry": {"type": "Point", "coordinates": [126.6596897, 33.3405187]}}, {"type": "Feature", "properties": {"task_name": "JJ-OREUM-135 명월오름", "observation_time": "2025-06-01T00:00:00Z", "sample_category": "scored", "sample_number": 132, "sample_true_false": false, "oreum_id": "JJ-OREUM-135", "tile": "51SYT", "abstain_reason": null, "event_flag_frac": 0.0039}, "geometry": {"type": "Point", "coordinates": [126.2786855, 33.3826441]}}, {"type": "Feature", "properties": {"task_name": "JJ-OREUM-137 모구리오름", "observation_time": "2026-09-08T00:00:00Z", "sample_category": "scored", "sample_number": 7, "sample_true_false": true, "oreum_id": "JJ-OREUM-137", "tile": "52SBB", "abstain_reason": null, "event_flag_frac": 0.1276}, "geometry": {"type": "Point", "coordinates": [126.8286577, 33.4090302]}}, {"type": "Feature", "properties": {"task_name": "JJ-OREUM-139 모슬봉", "observation_time": "2025-06-01T00:00:00Z", "sample_category": "scored", "sample_number": 141, "sample_true_false": true, "oreum_id": "JJ-OREUM-139", "tile": "51SYS", "abstain_reason": null, "event_flag_frac": 0.0018}, "geometry": {"type": "Point", "coordinates": [126.2581704, 33.2386514]}}, {"type": "Feature", "properties": {"task_name": "JJ-OREUM-140 모지오름", "observation_time": "2025-06-01T00:00:00Z", "sample_category": "scored", "sample_number": 117, "sample_true_false": false, "oreum_id": "JJ-OREUM-140", "tile": "52SBC", "abstain_reason": null, "event_flag_frac": 0.0053}, "geometry": {"type": "Point", "coordinates": [126.7683177, 33.3940848]}}, {"type": "Feature", "properties": {"task_name": "JJ-OREUM-143 문도지오름", "observation_time": "2026-09-05T00:00:00Z", "sample_category": "scored", "sample_number": 1, "sample_true_false": true, "oreum_id": "JJ-OREUM-143", "tile": "52SBB", "abstain_reason": null, "event_flag_frac": 0.3022}, "geometry": {"type": "Point", "coordinates": [126.2945751, 33.3263266]}}, {"type": "Feature", "properties": {"task_name": "JJ-OREUM-144 문석이오름", "observation_time": "2025-06-01T00:00:00Z", "sample_category": "scored", "sample_number": 94, "sample_true_false": false, "oreum_id": "JJ-OREUM-144", "tile": "52SBC", "abstain_reason": null, "event_flag_frac": 0.0129}, "geometry": {"type": "Point", "coordinates": [126.7960867, 33.447329]}}, {"type": "Feature", "properties": {"task_name": "JJ-OREUM-146 물영아리", "observation_time": "2025-06-01T00:00:00Z", "sample_category": "abstain", "sample_number": -1, "sample_true_false": false, "oreum_id": "JJ-OREUM-146", "tile": "52SBB", "abstain_reason": "event pair unobservable: 2025", "event_flag_frac": null}, "geometry": {"type": "Point", "coordinates": [126.6920759, 33.3684065]}}, {"type": "Feature", "properties": {"task_name": "JJ-OREUM-147 물오름", "observation_time": "2025-06-01T00:00:00Z", "sample_category": "abstain", "sample_number": -1, "sample_true_false": false, "oreum_id": "JJ-OREUM-147", "tile": "52SBB", "abstain_reason": "event pair unobservable: 2025", "event_flag_frac": null}, "geometry": {"type": "Point", "coordinates": [126.6236078, 33.3840986]}}, {"type": "Feature", "properties": {"task_name": "JJ-OREUM-148 물장오리", "observation_time": "2025-06-01T00:00:00Z", "sample_category": "abstain", "sample_number": -1, "sample_true_false": false, "oreum_id": "JJ-OREUM-148", "tile": "52SBB", "abstain_reason": "event pair unobservable: 2025", "event_flag_frac": null}, "geometry": {"type": "Point", "coordinates": [126.6067852, 33.4062618]}}, {"type": "Feature", "properties": {"task_name": "JJ-OREUM-149 물찻", "observation_time": "2025-06-01T00:00:00Z", "sample_category": "abstain", "sample_number": -1, "sample_true_false": false, "oreum_id": "JJ-OREUM-149", "tile": "52SBB", "abstain_reason": "event pair unobservable: 2025", "event_flag_frac": null}, "geometry": {"type": "Point", "coordinates": [126.6528629, 33.3948485]}}, {"type": "Feature", "properties": {"task_name": "JJ-OREUM-153 민오름", "observation_time": "2025-06-01T00:00:00Z", "sample_category": "abstain", "sample_number": -1, "sample_true_false": false, "oreum_id": "JJ-OREUM-153", "tile": "52SBB", "abstain_reason": "event pair unobservable: 2025", "event_flag_frac": null}, "geometry": {"type": "Point", "coordinates": [126.676908, 33.3503259]}}, {"type": "Feature", "properties": {"task_name": "JJ-OREUM-154 민오름", "observation_time": "2025-06-01T00:00:00Z", "sample_category": "scored", "sample_number": 16, "sample_true_false": true, "oreum_id": "JJ-OREUM-154", "tile": "52SBC", "abstain_reason": null, "event_flag_frac": 0.0899}, "geometry": {"type": "Point", "coordinates": [126.7628649, 33.4364824]}}, {"type": "Feature", "properties": {"task_name": "JJ-OREUM-155 민오름", "observation_time": "2025-06-01T00:00:00Z", "sample_category": "scored", "sample_number": 54, "sample_true_false": true, "oreum_id": "JJ-OREUM-155", "tile": "52SBC", "abstain_reason": null, "event_flag_frac": 0.027}, "geometry": {"type": "Point", "coordinates": [126.5071055, 33.4755707]}}, {"type": "Feature", "properties": {"task_name": "JJ-OREUM-156 민오름", "observation_time": "2025-06-01T00:00:00Z", "sample_category": "scored", "sample_number": 17, "sample_true_false": true, "oreum_id": "JJ-OREUM-156", "tile": "52SBC", "abstain_reason": null, "event_flag_frac": 0.0897}, "geometry": {"type": "Point", "coordinates": [126.6949508, 33.4483636]}}, {"type": "Feature", "properties": {"task_name": "JJ-OREUM-157 민오름(무녜오름)", "observation_time": "2025-06-01T00:00:00Z", "sample_category": "abstain", "sample_number": -1, "sample_true_false": false, "oreum_id": "JJ-OREUM-157", "tile": "52SBC", "abstain_reason": "event pair unobservable: 2025", "event_flag_frac": null}, "geometry": {"type": "Point", "coordinates": [126.637081, 33.4372427]}}, {"type": "Feature", "properties": {"task_name": "JJ-OREUM-158 바농오름", "observation_time": "2025-06-01T00:00:00Z", "sample_category": "scored", "sample_number": 61, "sample_true_false": false, "oreum_id": "JJ-OREUM-158", "tile": "52SBC", "abstain_reason": null, "event_flag_frac": 0.0228}, "geometry": {"type": "Point", "coordinates": [126.6538014, 33.4537782]}}, {"type": "Feature", "properties": {"task_name": "JJ-OREUM-159 큰바리메", "observation_time": "2025-06-01T00:00:00Z", "sample_category": "abstain", "sample_number": -1, "sample_true_false": false, "oreum_id": "JJ-OREUM-159", "tile": "52SBB", "abstain_reason": "no cube", "event_flag_frac": null}, "geometry": {"type": "Point", "coordinates": [126.3880413, 33.3771547]}}, {"type": "Feature", "properties": {"task_name": "JJ-OREUM-160 밝은오름", "observation_time": "2025-06-01T00:00:00Z", "sample_category": "abstain", "sample_number": -1, "sample_true_false": false, "oreum_id": "JJ-OREUM-160", "tile": "52SBB", "abstain_reason": "event pair unobservable: 2025", "event_flag_frac": null}, "geometry": {"type": "Point", "coordinates": [126.3414922, 33.301269]}}, {"type": "Feature", "properties": {"task_name": "JJ-OREUM-161 밝은오름", "observation_time": "2025-06-01T00:00:00Z", "sample_category": "scored", "sample_number": 88, "sample_true_false": false, "oreum_id": "JJ-OREUM-161", "tile": "51SYT", "abstain_reason": null, "event_flag_frac": 0.0137}, "geometry": {"type": "Point", "coordinates": [126.2660907, 33.3609334]}}, {"type": "Feature", "properties": {"task_name": "JJ-OREUM-162 밝은오름", "observation_time": "2026-09-05T00:00:00Z", "sample_category": "scored", "sample_number": 12, "sample_true_false": false, "oreum_id": "JJ-OREUM-162", "tile": "52SBB", "abstain_reason": null, "event_flag_frac": 0.0986}, "geometry": {"type": "Point", "coordinates": [126.33592, 33.35103]}}, {"type": "Feature", "properties": {"task_name": "JJ-OREUM-163 밝은오름", "observation_time": "2025-06-01T00:00:00Z", "sample_category": "abstain", "sample_number": -1, "sample_true_false": false, "oreum_id": "JJ-OREUM-163", "tile": "52SBC", "abstain_reason": "event pair unobservable: 2025", "event_flag_frac": null}, "geometry": {"type": "Point", "coordinates": [126.4647421, 33.4401456]}}, {"type": "Feature", "properties": {"task_name": "JJ-OREUM-164 밧돌오름", "observation_time": "2025-06-01T00:00:00Z", "sample_category": "abstain", "sample_number": -1, "sample_true_false": false, "oreum_id": "JJ-OREUM-164", "tile": "52SBC", "abstain_reason": "event pair unobservable: 2025", "event_flag_frac": null}, "geometry": {"type": "Point", "coordinates": [126.7603808, 33.4607383]}}, {"type": "Feature", "properties": {"task_name": "JJ-OREUM-165 밧세미", "observation_time": "2025-06-01T00:00:00Z", "sample_category": "scored", "sample_number": 81, "sample_true_false": true, "oreum_id": "JJ-OREUM-165", "tile": "52SBC", "abstain_reason": null, "event_flag_frac": 0.0154}, "geometry": {"type": "Point", "coordinates": [126.603104, 33.4652656]}}, {"type": "Feature", "properties": {"task_name": "JJ-OREUM-167 방애오름", "observation_time": "2025-06-01T00:00:00Z", "sample_category": "abstain", "sample_number": -1, "sample_true_false": false, "oreum_id": "JJ-OREUM-167", "tile": "52SBC", "abstain_reason": "event pair unobservable: 2025", "event_flag_frac": null}, "geometry": {"type": "Point", "coordinates": [126.6845334, 33.4439289]}}, {"type": "Feature", "properties": {"task_name": "JJ-OREUM-169 방주오름", "observation_time": "2025-06-01T00:00:00Z", "sample_category": "scored", "sample_number": 125, "sample_true_false": false, "oreum_id": "JJ-OREUM-169", "tile": "51SYT", "abstain_reason": null, "event_flag_frac": 0.0047}, "geometry": {"type": "Point", "coordinates": [126.28296, 33.37917]}}, {"type": "Feature", "properties": {"task_name": "JJ-OREUM-170 백약이오름", "observation_time": "2025-06-01T00:00:00Z", "sample_category": "scored", "sample_number": 31, "sample_true_false": false, "oreum_id": "JJ-OREUM-170", "tile": "52SBC", "abstain_reason": null, "event_flag_frac": 0.0547}, "geometry": {"type": "Point", "coordinates": [126.7890417, 33.4381917]}}, {"type": "Feature", "properties": {"task_name": "JJ-OREUM-171 번널오름", "observation_time": "2025-06-01T00:00:00Z", "sample_category": "scored", "sample_number": 36, "sample_true_false": true, "oreum_id": "JJ-OREUM-171", "tile": "52SBB", "abstain_reason": null, "event_flag_frac": 0.0461}, "geometry": {"type": "Point", "coordinates": [126.7458968, 33.3742704]}}, {"type": "Feature", "properties": {"task_name": "JJ-OREUM-175 별도봉", "observation_time": "2025-06-01T00:00:00Z", "sample_category": "scored", "sample_number": 151, "sample_true_false": false, "oreum_id": "JJ-OREUM-175", "tile": "52SBC", "abstain_reason": null, "event_flag_frac": 0.0}, "geometry": {"type": "Point", "coordinates": [126.5531095, 33.5194463]}}, {"type": "Feature", "properties": {"task_name": "JJ-OREUM-176 병곳오름", "observation_time": "2025-06-01T00:00:00Z", "sample_category": "scored", "sample_number": 24, "sample_true_false": true, "oreum_id": "JJ-OREUM-176", "tile": "52SBB", "abstain_reason": null, "event_flag_frac": 0.0657}, "geometry": {"type": "Point", "coordinates": [126.748405, 33.3669885]}}, {"type": "Feature", "properties": {"task_name": "JJ-OREUM-179 보리악", "observation_time": "2025-06-01T00:00:00Z", "sample_category": "abstain", "sample_number": -1, "sample_true_false": false, "oreum_id": "JJ-OREUM-179", "tile": "52SBB", "abstain_reason": "event pair unobservable: 2025", "event_flag_frac": null}, "geometry": {"type": "Point", "coordinates": [126.6011185, 33.3470213]}}, {"type": "Feature", "properties": {"task_name": "JJ-OREUM-180 본지오름", "observation_time": "2026-09-08T00:00:00Z", "sample_category": "scored", "sample_number": 9, "sample_true_false": false, "oreum_id": "JJ-OREUM-180", "tile": "52SBB", "abstain_reason": null, "event_flag_frac": 0.113}, "geometry": {"type": "Point", "coordinates": [126.8222833, 33.3871362]}}, {"type": "Feature", "properties": {"task_name": "JJ-OREUM-181 볼레오름", "observation_time": "2025-06-01T00:00:00Z", "sample_category": "scored", "sample_number": 51, "sample_true_false": true, "oreum_id": "JJ-OREUM-181", "tile": "52SBC", "abstain_reason": null, "event_flag_frac": 0.0322}, "geometry": {"type": "Point", "coordinates": [126.4849936, 33.3531]}}, {"type": "Feature", "properties": {"task_name": "JJ-OREUM-183 부대악", "observation_time": "2025-06-01T00:00:00Z", "sample_category": "abstain", "sample_number": -1, "sample_true_false": false, "oreum_id": "JJ-OREUM-183", "tile": "52SBC", "abstain_reason": "event pair unobservable: 2025", "event_flag_frac": null}, "geometry": {"type": "Point", "coordinates": [126.7089481, 33.4462188]}}, {"type": "Feature", "properties": {"task_name": "JJ-OREUM-184 부소악", "observation_time": "2025-06-01T00:00:00Z", "sample_category": "abstain", "sample_number": -1, "sample_true_false": false, "oreum_id": "JJ-OREUM-184", "tile": "52SBC", "abstain_reason": "event pair unobservable: 2025", "event_flag_frac": null}, "geometry": {"type": "Point", "coordinates": [126.7177052, 33.4422465]}}, {"type": "Feature", "properties": {"task_name": "JJ-OREUM-187 북오름", "observation_time": "2025-06-01T00:00:00Z", "sample_category": "abstain", "sample_number": -1, "sample_true_false": false, "oreum_id": "JJ-OREUM-187", "tile": "52SBB", "abstain_reason": "event pair unobservable: 2025", "event_flag_frac": null}, "geometry": {"type": "Point", "coordinates": [126.3320053, 33.3061584]}}, {"type": "Feature", "properties": {"task_name": "JJ-OREUM-188 북오름", "observation_time": "2025-06-01T00:00:00Z", "sample_category": "scored", "sample_number": 29, "sample_true_false": true, "oreum_id": "JJ-OREUM-188", "tile": "52SBC", "abstain_reason": null, "event_flag_frac": 0.0603}, "geometry": {"type": "Point", "coordinates": [126.7401913, 33.4873003]}}, {"type": "Feature", "properties": {"task_name": "JJ-OREUM-189 불칸디오름", "observation_time": "2025-06-01T00:00:00Z", "sample_category": "abstain", "sample_number": -1, "sample_true_false": false, "oreum_id": "JJ-OREUM-189", "tile": "52SBB", "abstain_reason": "event pair unobservable: 2025, 2026", "event_flag_frac": null}, "geometry": {"type": "Point", "coordinates": [126.5926087, 33.3971004]}}, {"type": "Feature", "properties": {"task_name": "JJ-OREUM-190 붉은오름", "observation_time": "2025-06-01T00:00:00Z", "sample_category": "scored", "sample_number": 110, "sample_true_false": false, "oreum_id": "JJ-OREUM-190", "tile": "52SCC", "abstain_reason": null, "event_flag_frac": 0.0066}, "geometry": {"type": "Point", "coordinates": [126.9336389, 33.4274333]}}, {"type": "Feature", "properties": {"task_name": "JJ-OREUM-191 붉은오름", "observation_time": "2025-06-01T00:00:00Z", "sample_category": "abstain", "sample_number": -1, "sample_true_false": false, "oreum_id": "JJ-OREUM-191", "tile": "52SBB", "abstain_reason": "event pair unobservable: 2025", "event_flag_frac": null}, "geometry": {"type": "Point", "coordinates": [126.6798823, 33.399732]}}, {"type": "Feature", "properties": {"task_name": "JJ-OREUM-193 비양봉", "observation_time": "2025-06-01T00:00:00Z", "sample_category": "scored", "sample_number": 152, "sample_true_false": false, "oreum_id": "JJ-OREUM-193", "tile": "51SYT", "abstain_reason": null, "event_flag_frac": 0.0}, "geometry": {"type": "Point", "coordinates": [126.2268725, 33.4095141]}}, {"type": "Feature", "properties": {"task_name": "JJ-OREUM-194 비치미", "observation_time": "2025-06-01T00:00:00Z", "sample_category": "scored", "sample_number": 55, "sample_true_false": true, "oreum_id": "JJ-OREUM-194", "tile": "52SBC", "abstain_reason": null, "event_flag_frac": 0.0269}, "geometry": {"type": "Point", "coordinates": [126.763106, 33.4273995]}}, {"type": "Feature", "properties": {"task_name": "JJ-OREUM-195 빈네오름", "observation_time": "2025-06-01T00:00:00Z", "sample_category": "scored", "sample_number": 102, "sample_true_false": true, "oreum_id": "JJ-OREUM-195", "tile": "52SBC", "abstain_reason": null, "event_flag_frac": 0.0096}, "geometry": {"type": "Point", "coordinates": [126.3940018, 33.3491728]}}, {"type": "Feature", "properties": {"task_name": "JJ-OREUM-196 사라봉", "observation_time": "2025-06-01T00:00:00Z", "sample_category": "scored", "sample_number": 143, "sample_true_false": false, "oreum_id": "JJ-OREUM-196", "tile": "52SBC", "abstain_reason": null, "event_flag_frac": 0.0015}, "geometry": {"type": "Point", "coordinates": [126.5448002, 33.5181076]}}, {"type": "Feature", "properties": {"task_name": "JJ-OREUM-197 사라오름", "observation_time": "2025-06-01T00:00:00Z", "sample_category": "abstain", "sample_number": -1, "sample_true_false": false, "oreum_id": "JJ-OREUM-197", "tile": "52SBB", "abstain_reason": "event pair unobservable: 2025", "event_flag_frac": null}, "geometry": {"type": "Point", "coordinates": [126.5709766, 33.3719042]}}, {"type": "Feature", "properties": {"task_name": "JJ-OREUM-198 사려니", "observation_time": "2025-06-01T00:00:00Z", "sample_category": "abstain", "sample_number": -1, "sample_true_false": false, "oreum_id": "JJ-OREUM-198", "tile": "52SBB", "abstain_reason": "event pair unobservable: 2025", "event_flag_frac": null}, "geometry": {"type": "Point", "coordinates": [126.646022, 33.3403985]}}, {"type": "Feature", "properties": {"task_name": "JJ-OREUM-199 사려니 남서쪽", "observation_time": "2025-06-01T00:00:00Z", "sample_category": "abstain", "sample_number": -1, "sample_true_false": false, "oreum_id": "JJ-OREUM-199", "tile": "52SBB", "abstain_reason": "event pair unobservable: 2025", "event_flag_frac": null}, "geometry": {"type": "Point", "coordinates": [126.6394806, 33.3406167]}}, {"type": "Feature", "properties": {"task_name": "JJ-OREUM-200 사제비동산", "observation_time": "2025-06-01T00:00:00Z", "sample_category": "scored", "sample_number": 46, "sample_true_false": true, "oreum_id": "JJ-OREUM-200", "tile": "52SBC", "abstain_reason": null, "event_flag_frac": 0.0365}, "geometry": {"type": "Point", "coordinates": [126.497364, 33.3748778]}}, {"type": "Feature", "properties": {"task_name": "JJ-OREUM-203 산세미오름", "observation_time": "2025-06-01T00:00:00Z", "sample_category": "abstain", "sample_number": -1, "sample_true_false": false, "oreum_id": "JJ-OREUM-203", "tile": "52SBB", "abstain_reason": "event pair unobservable: 2025", "event_flag_frac": null}, "geometry": {"type": "Point", "coordinates": [126.4341119, 33.4087035]}}, {"type": "Feature", "properties": {"task_name": "JJ-OREUM-204 살핀오름", "observation_time": "2025-06-01T00:00:00Z", "sample_category": "scored", "sample_number": 67, "sample_true_false": true, "oreum_id": "JJ-OREUM-204", "tile": "52SBC", "abstain_reason": null, "event_flag_frac": 0.0199}, "geometry": {"type": "Point", "coordinates": [126.462167, 33.3678839]}}, {"type": "Feature", "properties": {"task_name": "JJ-OREUM-205 삼각봉", "observation_time": "2025-06-01T00:00:00Z", "sample_category": "abstain", "sample_number": -1, "sample_true_false": false, "oreum_id": "JJ-OREUM-205", "tile": "52SBC", "abstain_reason": "no cube", "event_flag_frac": null}, "geometry": {"type": "Point", "coordinates": [126.5265715, 33.3731517]}}, {"type": "Feature", "properties": {"task_name": "JJ-OREUM-206 삼매봉", "observation_time": "2025-06-01T00:00:00Z", "sample_category": "scored", "sample_number": 153, "sample_true_false": false, "oreum_id": "JJ-OREUM-206", "tile": "52SBB", "abstain_reason": null, "event_flag_frac": 0.0}, "geometry": {"type": "Point", "coordinates": [126.5462519, 33.2439188]}}, {"type": "Feature", "properties": {"task_name": "JJ-OREUM-211 삼형제큰오름", "observation_time": "2025-06-01T00:00:00Z", "sample_category": "scored", "sample_number": 68, "sample_true_false": true, "oreum_id": "JJ-OREUM-211", "tile": "52SBC", "abstain_reason": null, "event_flag_frac": 0.0198}, "geometry": {"type": "Point", "coordinates": [126.4601412, 33.3576601]}}, {"type": "Feature", "properties": {"task_name": "JJ-OREUM-212 상여오름", "observation_time": "2025-06-01T00:00:00Z", "sample_category": "scored", "sample_number": 104, "sample_true_false": true, "oreum_id": "JJ-OREUM-212", "tile": "52SBC", "abstain_reason": null, "event_flag_frac": 0.0078}, "geometry": {"type": "Point", "coordinates": [126.491702, 33.4657083]}}, {"type": "Feature", "properties": {"task_name": "JJ-OREUM-213 새끼오름", "observation_time": "2025-06-01T00:00:00Z", "sample_category": "scored", "sample_number": 37, "sample_true_false": true, "oreum_id": "JJ-OREUM-213", "tile": "52SBB", "abstain_reason": null, "event_flag_frac": 0.045}, "geometry": {"type": "Point", "coordinates": [126.750927, 33.3965817]}}, {"type": "Feature", "properties": {"task_name": "JJ-OREUM-214 새별오름", "observation_time": "2025-06-01T00:00:00Z", "sample_category": "scored", "sample_number": 33, "sample_true_false": true, "oreum_id": "JJ-OREUM-214", "tile": "52SBB", "abstain_reason": null, "event_flag_frac": 0.0528}, "geometry": {"type": "Point", "coordinates": [126.3576883, 33.3662548]}}, {"type": "Feature", "properties": {"task_name": "JJ-OREUM-215 새신오름", "observation_time": "2026-09-05T00:00:00Z", "sample_category": "scored", "sample_number": 8, "sample_true_false": true, "oreum_id": "JJ-OREUM-215", "tile": "52SBB", "abstain_reason": null, "event_flag_frac": 0.1165}, "geometry": {"type": "Point", "coordinates": [126.2376627, 33.2977804]}}, {"type": "Feature", "properties": {"task_name": "JJ-OREUM-218 샛오름", "observation_time": "2025-06-01T00:00:00Z", "sample_category": "scored", "sample_number": 144, "sample_true_false": false, "oreum_id": "JJ-OREUM-218", "tile": "51SYT", "abstain_reason": null, "event_flag_frac": 0.0015}, "geometry": {"type": "Point", "coordinates": [126.3173459, 33.4476476]}}, {"type": "Feature", "properties": {"task_name": "JJ-OREUM-220 서삼봉", "observation_time": "2025-06-01T00:00:00Z", "sample_category": "abstain", "sample_number": -1, "sample_true_false": false, "oreum_id": "JJ-OREUM-220", "tile": "52SBC", "abstain_reason": "no cube", "event_flag_frac": null}, "geometry": {"type": "Point", "coordinates": [126.5531402, 33.4406233]}}, {"type": "Feature", "properties": {"task_name": "JJ-OREUM-222 서우봉", "observation_time": "2025-06-01T00:00:00Z", "sample_category": "scored", "sample_number": 130, "sample_true_false": false, "oreum_id": "JJ-OREUM-222", "tile": "52SBC", "abstain_reason": null, "event_flag_frac": 0.0043}, "geometry": {"type": "Point", "coordinates": [126.6775825, 33.5458447]}}, {"type": "Feature", "properties": {"task_name": "JJ-OREUM-223 선소오름", "observation_time": "2025-06-01T00:00:00Z", "sample_category": "scored", "sample_number": 103, "sample_true_false": false, "oreum_id": "JJ-OREUM-223", "tile": "51SYT", "abstain_reason": null, "event_flag_frac": 0.0085}, "geometry": {"type": "Point", "coordinates": [126.2887115, 33.3730449]}}, {"type": "Feature", "properties": {"task_name": "JJ-OREUM-225 설오름", "observation_time": "2025-06-01T00:00:00Z", "sample_category": "scored", "sample_number": 20, "sample_true_false": true, "oreum_id": "JJ-OREUM-225", "tile": "52SBB", "abstain_reason": null, "event_flag_frac": 0.0735}, "geometry": {"type": "Point", "coordinates": [126.7695394, 33.3710636]}}, {"type": "Feature", "properties": {"task_name": "JJ-OREUM-227 섯알오름", "observation_time": "2025-06-01T00:00:00Z", "sample_category": "scored", "sample_number": 126, "sample_true_false": false, "oreum_id": "JJ-OREUM-227", "tile": "51SYS", "abstain_reason": null, "event_flag_frac": 0.0047}, "geometry": {"type": "Point", "coordinates": [126.2812203, 33.2064905]}}, {"type": "Feature", "properties": {"task_name": "JJ-OREUM-228 성널오름", "observation_time": "2025-06-01T00:00:00Z", "sample_category": "abstain", "sample_number": -1, "sample_true_false": false, "oreum_id": "JJ-OREUM-228", "tile": "52SBB", "abstain_reason": "event pair unobservable: 2025", "event_flag_frac": null}, "geometry": {"type": "Point", "coordinates": [126.5918597, 33.3740983]}}, {"type": "Feature", "properties": {"task_name": "JJ-OREUM-229 성불오름", "observation_time": "2025-06-01T00:00:00Z", "sample_category": "scored", "sample_number": 75, "sample_true_false": false, "oreum_id": "JJ-OREUM-229", "tile": "52SBC", "abstain_reason": null, "event_flag_frac": 0.0178}, "geometry": {"type": "Point", "coordinates": [126.7491286, 33.4224437]}}, {"type": "Feature", "properties": {"task_name": "JJ-OREUM-230 성산일출봉", "observation_time": "2025-06-01T00:00:00Z", "sample_category": "scored", "sample_number": 140, "sample_true_false": false, "oreum_id": "JJ-OREUM-230", "tile": "52SCC", "abstain_reason": null, "event_flag_frac": 0.002}, "geometry": {"type": "Point", "coordinates": [126.9408178, 33.4588891]}}, {"type": "Feature", "properties": {"task_name": "JJ-OREUM-231 성진이오름", "observation_time": "2025-06-01T00:00:00Z", "sample_category": "abstain", "sample_number": -1, "sample_true_false": false, "oreum_id": "JJ-OREUM-231", "tile": "52SBC", "abstain_reason": "event pair unobservable: 2025", "event_flag_frac": null}, "geometry": {"type": "Point", "coordinates": [126.6108506, 33.4198196]}}, {"type": "Feature", "properties": {"task_name": "JJ-OREUM-232 세미소", "observation_time": "2026-09-05T00:00:00Z", "sample_category": "scored", "sample_number": 4, "sample_true_false": true, "oreum_id": "JJ-OREUM-232", "tile": "52SBB", "abstain_reason": null, "event_flag_frac": 0.1843}, "geometry": {"type": "Point", "coordinates": [126.3233222, 33.3499528]}}, {"type": "Feature", "properties": {"task_name": "JJ-OREUM-234 세미오름", "observation_time": "2025-06-01T00:00:00Z", "sample_category": "scored", "sample_number": 63, "sample_true_false": false, "oreum_id": "JJ-OREUM-234", "tile": "52SBC", "abstain_reason": null, "event_flag_frac": 0.0227}, "geometry": {"type": "Point", "coordinates": [126.6694243, 33.4740199]}}, {"type": "Feature", "properties": {"task_name": "JJ-OREUM-235 소록산", "observation_time": "2025-06-01T00:00:00Z", "sample_category": "scored", "sample_number": 52, "sample_true_false": false, "oreum_id": "JJ-OREUM-235", "tile": "52SBC", "abstain_reason": null, "event_flag_frac": 0.029}, "geometry": {"type": "Point", "coordinates": [126.7228427, 33.4004686]}}, {"type": "Feature", "properties": {"task_name": "JJ-OREUM-236 소병악", "observation_time": "2025-06-01T00:00:00Z", "sample_category": "abstain", "sample_number": -1, "sample_true_false": false, "oreum_id": "JJ-OREUM-236", "tile": "52SBB", "abstain_reason": "event pair unobservable: 2025", "event_flag_frac": null}, "geometry": {"type": "Point", "coordinates": [126.3743066, 33.3083508]}}, {"type": "Feature", "properties": {"task_name": "JJ-OREUM-237 소산오름", "observation_time": "2025-06-01T00:00:00Z", "sample_category": "scored", "sample_number": 57, "sample_true_false": true, "oreum_id": "JJ-OREUM-237", "tile": "52SBC", "abstain_reason": null, "event_flag_frac": 0.0263}, "geometry": {"type": "Point", "coordinates": [126.5536297, 33.4460664]}}, {"type": "Feature", "properties": {"task_name": "JJ-OREUM-238 소소름", "observation_time": "2025-06-01T00:00:00Z", "sample_category": "scored", "sample_number": 21, "sample_true_false": true, "oreum_id": "JJ-OREUM-238", "tile": "52SBB", "abstain_reason": null, "event_flag_frac": 0.0706}, "geometry": {"type": "Point", "coordinates": [126.7553653, 33.3441784]}}, {"type": "Feature", "properties": {"task_name": "JJ-OREUM-239 소수산봉", "observation_time": "2025-06-01T00:00:00Z", "sample_category": "scored", "sample_number": 147, "sample_true_false": true, "oreum_id": "JJ-OREUM-239", "tile": "52SBC", "abstain_reason": null, "event_flag_frac": 0.0011}, "geometry": {"type": "Point", "coordinates": [126.9122167, 33.4367639]}}, {"type": "Feature", "properties": {"task_name": "JJ-OREUM-240 소왕산", "observation_time": "2025-06-01T00:00:00Z", "sample_category": "scored", "sample_number": 105, "sample_true_false": true, "oreum_id": "JJ-OREUM-240", "tile": "52SBC", "abstain_reason": null, "event_flag_frac": 0.0076}, "geometry": {"type": "Point", "coordinates": [126.876818, 33.4643179]}}, {"type": "Feature", "properties": {"task_name": "JJ-OREUM-241 손자봉", "observation_time": "2025-06-01T00:00:00Z", "sample_category": "scored", "sample_number": 85, "sample_true_false": false, "oreum_id": "JJ-OREUM-241", "tile": "52SBC", "abstain_reason": null, "event_flag_frac": 0.0141}, "geometry": {"type": "Point", "coordinates": [126.8194138, 33.4552435]}}, {"type": "Feature", "properties": {"task_name": "JJ-OREUM-242 송아오름", "observation_time": "2025-06-01T00:00:00Z", "sample_category": "scored", "sample_number": 119, "sample_true_false": false, "oreum_id": "JJ-OREUM-242", "tile": "51SYT", "abstain_reason": null, "event_flag_frac": 0.0051}, "geometry": {"type": "Point", "coordinates": [126.2360167, 33.3276528]}}, {"type": "Feature", "properties": {"task_name": "JJ-OREUM-243 송악산", "observation_time": "2025-06-01T00:00:00Z", "sample_category": "scored", "sample_number": 145, "sample_true_false": false, "oreum_id": "JJ-OREUM-243", "tile": "51SYS", "abstain_reason": null, "event_flag_frac": 0.0012}, "geometry": {"type": "Point", "coordinates": [126.2897901, 33.1990813]}}, {"type": "Feature", "properties": {"task_name": "JJ-OREUM-245 수악", "observation_time": "2025-06-01T00:00:00Z", "sample_category": "abstain", "sample_number": -1, "sample_true_false": false, "oreum_id": "JJ-OREUM-245", "tile": "52SBB", "abstain_reason": "event pair unobservable: 2025, 2026", "event_flag_frac": null}, "geometry": {"type": "Point", "coordinates": [126.6094508, 33.3246214]}}, {"type": "Feature", "properties": {"task_name": "JJ-OREUM-246 수월봉", "observation_time": "2025-06-01T00:00:00Z", "sample_category": "scored", "sample_number": 48, "sample_true_false": true, "oreum_id": "JJ-OREUM-246", "tile": "51SYS", "abstain_reason": null, "event_flag_frac": 0.0334}, "geometry": {"type": "Point", "coordinates": [126.1632411, 33.2945665]}}, {"type": "Feature", "properties": {"task_name": "JJ-OREUM-248 시오름", "observation_time": "2025-06-01T00:00:00Z", "sample_category": "abstain", "sample_number": -1, "sample_true_false": false, "oreum_id": "JJ-OREUM-248", "tile": "52SBB", "abstain_reason": "event pair unobservable: 2025, 2026", "event_flag_frac": null}, "geometry": {"type": "Point", "coordinates": [126.5168893, 33.3062205]}}, {"type": "Feature", "properties": {"task_name": "JJ-OREUM-249 식산봉", "observation_time": "2025-06-01T00:00:00Z", "sample_category": "scored", "sample_number": 136, "sample_true_false": true, "oreum_id": "JJ-OREUM-249", "tile": "52SCC", "abstain_reason": null, "event_flag_frac": 0.0025}, "geometry": {"type": "Point", "coordinates": [126.9198882, 33.4656984]}}, {"type": "Feature", "properties": {"task_name": "JJ-OREUM-251 신산오름", "observation_time": "2025-06-01T00:00:00Z", "sample_category": "scored", "sample_number": 58, "sample_true_false": true, "oreum_id": "JJ-OREUM-251", "tile": "52SBB", "abstain_reason": null, "event_flag_frac": 0.0257}, "geometry": {"type": "Point", "coordinates": [126.3624158, 33.2632933]}}, {"type": "Feature", "properties": {"task_name": "JJ-OREUM-254 아끈다랑쉬", "observation_time": "2025-06-01T00:00:00Z", "sample_category": "abstain", "sample_number": -1, "sample_true_false": false, "oreum_id": "JJ-OREUM-254", "tile": "52SBC", "abstain_reason": "event pair unobservable: 2025", "event_flag_frac": null}, "geometry": {"type": "Point", "coordinates": [126.8314944, 33.4746453]}}, {"type": "Feature", "properties": {"task_name": "JJ-OREUM-255 아부오름", "observation_time": "2025-06-01T00:00:00Z", "sample_category": "scored", "sample_number": 50, "sample_true_false": true, "oreum_id": "JJ-OREUM-255", "tile": "52SBC", "abstain_reason": null, "event_flag_frac": 0.0325}, "geometry": {"type": "Point", "coordinates": [126.7796798, 33.4475648]}}, {"type": "Feature", "properties": {"task_name": "JJ-OREUM-257 안돌오름", "observation_time": "2025-06-01T00:00:00Z", "sample_category": "abstain", "sample_number": -1, "sample_true_false": false, "oreum_id": "JJ-OREUM-257", "tile": "52SBC", "abstain_reason": "event pair unobservable: 2025", "event_flag_frac": null}, "geometry": {"type": "Point", "coordinates": [126.7558318, 33.4576592]}}, {"type": "Feature", "properties": {"task_name": "JJ-OREUM-258 안세미", "observation_time": "2025-06-01T00:00:00Z", "sample_category": "scored", "sample_number": 78, "sample_true_false": true, "oreum_id": "JJ-OREUM-258", "tile": "52SBC", "abstain_reason": null, "event_flag_frac": 0.0173}, "geometry": {"type": "Point", "coordinates": [126.6072646, 33.4674039]}}, {"type": "Feature", "properties": {"task_name": "JJ-OREUM-260 안천이오름", "observation_time": "2025-06-01T00:00:00Z", "sample_category": "abstain", "sample_number": -1, "sample_true_false": false, "oreum_id": "JJ-OREUM-260", "tile": "52SBB", "abstain_reason": "no cube", "event_flag_frac": null}, "geometry": {"type": "Point", "coordinates": [126.4103723, 33.3721529]}}, {"type": "Feature", "properties": {"task_name": "JJ-OREUM-261 안친오름", "observation_time": "2025-06-01T00:00:00Z", "sample_category": "abstain", "sample_number": -1, "sample_true_false": false, "oreum_id": "JJ-OREUM-261", "tile": "52SBC", "abstain_reason": "event pair unobservable: 2025", "event_flag_frac": null}, "geometry": {"type": "Point", "coordinates": [126.7859492, 33.4784779]}}, {"type": "Feature", "properties": {"task_name": "JJ-OREUM-262 알밤", "observation_time": "2025-06-01T00:00:00Z", "sample_category": "scored", "sample_number": 74, "sample_true_false": false, "oreum_id": "JJ-OREUM-262", "tile": "52SBC", "abstain_reason": null, "event_flag_frac": 0.0185}, "geometry": {"type": "Point", "coordinates": [126.7126378, 33.4911306]}}, {"type": "Feature", "properties": {"task_name": "JJ-OREUM-263 알방애오름", "observation_time": "2025-06-01T00:00:00Z", "sample_category": "abstain", "sample_number": -1, "sample_true_false": false, "oreum_id": "JJ-OREUM-263", "tile": "52SBB", "abstain_reason": "event pair unobservable: 2025", "event_flag_frac": null}, "geometry": {"type": "Point", "coordinates": [126.5299312, 33.347343]}}, {"type": "Feature", "properties": {"task_name": "JJ-OREUM-266 알오름", "observation_time": "2025-06-01T00:00:00Z", "sample_category": "scored", "sample_number": 149, "sample_true_false": false, "oreum_id": "JJ-OREUM-266", "tile": "52SBC", "abstain_reason": null, "event_flag_frac": 0.0008}, "geometry": {"type": "Point", "coordinates": [126.5495056, 33.5191278]}}, {"type": "Feature", "properties": {"task_name": "JJ-OREUM-268 어대오름", "observation_time": "2025-06-01T00:00:00Z", "sample_category": "scored", "sample_number": 64, "sample_true_false": true, "oreum_id": "JJ-OREUM-268", "tile": "52SBC", "abstain_reason": null, "event_flag_frac": 0.0223}, "geometry": {"type": "Point", "coordinates": [126.7608326, 33.49566]}}, {"type": "Feature", "properties": {"task_name": "JJ-OREUM-269 어도오름", "observation_time": "2025-06-01T00:00:00Z", "sample_category": "scored", "sample_number": 92, "sample_true_false": false, "oreum_id": "JJ-OREUM-269", "tile": "51SYT", "abstain_reason": null, "event_flag_frac": 0.013}, "geometry": {"type": "Point", "coordinates": [126.3073451, 33.4217561]}}, {"type": "Feature", "properties": {"task_name": "JJ-OREUM-270 어스렁오름", "observation_time": "2025-06-01T00:00:00Z", "sample_category": "scored", "sample_number": 38, "sample_true_false": true, "oreum_id": "JJ-OREUM-270", "tile": "52SBC", "abstain_reason": null, "event_flag_frac": 0.0439}, "geometry": {"type": "Point", "coordinates": [126.4868191, 33.3590468]}}, {"type": "Feature", "properties": {"task_name": "JJ-OREUM-271 어승생", "observation_time": "2025-06-01T00:00:00Z", "sample_category": "abstain", "sample_number": -1, "sample_true_false": false, "oreum_id": "JJ-OREUM-271", "tile": "52SBB", "abstain_reason": "event pair unobservable: 2025, 2026", "event_flag_frac": null}, "geometry": {"type": "Point", "coordinates": [126.4892586, 33.396556]}}, {"type": "Feature", "properties": {"task_name": "JJ-OREUM-272 어오름", "observation_time": "2025-06-01T00:00:00Z", "sample_category": "abstain", "sample_number": -1, "sample_true_false": false, "oreum_id": "JJ-OREUM-272", "tile": "52SBC", "abstain_reason": "event pair unobservable: 2025", "event_flag_frac": null}, "geometry": {"type": "Point", "coordinates": [126.4054472, 33.3242139]}}, {"type": "Feature", "properties": {"task_name": "JJ-OREUM-273 어점이악", "observation_time": "2025-06-01T00:00:00Z", "sample_category": "abstain", "sample_number": -1, "sample_true_false": false, "oreum_id": "JJ-OREUM-273", "tile": "52SBB", "abstain_reason": "event pair unobservable: 2025, 2026", "event_flag_frac": null}, "geometry": {"type": "Point", "coordinates": [126.4990389, 33.3108083]}}, {"type": "Feature", "properties": {"task_name": "JJ-OREUM-274 어후오름", "observation_time": "2025-06-01T00:00:00Z", "sample_category": "abstain", "sample_number": -1, "sample_true_false": false, "oreum_id": "JJ-OREUM-274", "tile": "52SBB", "abstain_reason": "event pair unobservable: 2025, 2026", "event_flag_frac": null}, "geometry": {"type": "Point", "coordinates": [126.5936973, 33.3910529]}}, {"type": "Feature", "properties": {"task_name": "JJ-OREUM-275 여문영아리", "observation_time": "2025-06-01T00:00:00Z", "sample_category": "scored", "sample_number": 69, "sample_true_false": false, "oreum_id": "JJ-OREUM-275", "tile": "52SBC", "abstain_reason": null, "event_flag_frac": 0.0198}, "geometry": {"type": "Point", "coordinates": [126.6940924, 33.3826903]}}, {"type": "Feature", "properties": {"task_name": "JJ-OREUM-276 여절악", "observation_time": "2026-09-08T00:00:00Z", "sample_category": "scored", "sample_number": 10, "sample_true_false": true, "oreum_id": "JJ-OREUM-276", "tile": "52SBB", "abstain_reason": null, "event_flag_frac": 0.1097}, "geometry": {"type": "Point", "coordinates": [126.7364776, 33.348929]}}, {"type": "Feature", "properties": {"task_name": "JJ-OREUM-277 열안지", "observation_time": "2025-06-01T00:00:00Z", "sample_category": "abstain", "sample_number": -1, "sample_true_false": false, "oreum_id": "JJ-OREUM-277", "tile": "52SBC", "abstain_reason": "event pair unobservable: 2025", "event_flag_frac": null}, "geometry": {"type": "Point", "coordinates": [126.5212028, 33.425875]}}, {"type": "Feature", "properties": {"task_name": "JJ-OREUM-278 열안지오름", "observation_time": "2025-06-01T00:00:00Z", "sample_category": "scored", "sample_number": 100, "sample_true_false": true, "oreum_id": "JJ-OREUM-278", "tile": "52SBC", "abstain_reason": null, "event_flag_frac": 0.01}, "geometry": {"type": "Point", "coordinates": [126.6053687, 33.4730719]}}, {"type": "Feature", "properties": {"task_name": "JJ-OREUM-280 영주산", "observation_time": "2025-06-01T00:00:00Z", "sample_category": "scored", "sample_number": 134, "sample_true_false": false, "oreum_id": "JJ-OREUM-280", "tile": "52SBC", "abstain_reason": null, "event_flag_frac": 0.0035}, "geometry": {"type": "Point", "coordinates": [126.7962598, 33.4046235]}}, {"type": "Feature", "properties": {"task_name": "JJ-OREUM-281 영천악", "observation_time": "2025-06-01T00:00:00Z", "sample_category": "abstain", "sample_number": -1, "sample_true_false": false, "oreum_id": "JJ-OREUM-281", "tile": "52SBB", "abstain_reason": "event pair unobservable: 2026", "event_flag_frac": null}, "geometry": {"type": "Point", "coordinates": [126.6008433, 33.2952411]}}, {"type": "Feature", "properties": {"task_name": "JJ-OREUM-282 예촌망", "observation_time": "2025-06-01T00:00:00Z", "sample_category": "scored", "sample_number": 113, "sample_true_false": true, "oreum_id": "JJ-OREUM-282", "tile": "52SBB", "abstain_reason": null, "event_flag_frac": 0.006}, "geometry": {"type": "Point", "coordinates": [126.6304282, 33.2569375]}}, {"type": "Feature", "properties": {"task_name": "JJ-OREUM-283 오구시오름", "observation_time": "2025-06-01T00:00:00Z", "sample_category": "scored", "sample_number": 111, "sample_true_false": true, "oreum_id": "JJ-OREUM-283", "tile": "52SBC", "abstain_reason": null, "event_flag_frac": 0.0063}, "geometry": {"type": "Point", "coordinates": [126.5350734, 33.4699864]}}, {"type": "Feature", "properties": {"task_name": "JJ-OREUM-286 왕관릉", "observation_time": "2025-06-01T00:00:00Z", "sample_category": "abstain", "sample_number": -1, "sample_true_false": false, "oreum_id": "JJ-OREUM-286", "tile": "52SBC", "abstain_reason": "no cube", "event_flag_frac": null}, "geometry": {"type": "Point", "coordinates": [126.5330453, 33.3711975]}}, {"type": "Feature", "properties": {"task_name": "JJ-OREUM-288 왕이메", "observation_time": "2025-06-01T00:00:00Z", "sample_category": "scored", "sample_number": 18, "sample_true_false": true, "oreum_id": "JJ-OREUM-288", "tile": "52SBB", "abstain_reason": null, "event_flag_frac": 0.0877}, "geometry": {"type": "Point", "coordinates": [126.3765879, 33.3435327]}}, {"type": "Feature", "properties": {"task_name": "JJ-OREUM-289 용눈이오름", "observation_time": "2025-06-01T00:00:00Z", "sample_category": "scored", "sample_number": 106, "sample_true_false": true, "oreum_id": "JJ-OREUM-289", "tile": "52SBC", "abstain_reason": null, "event_flag_frac": 0.0072}, "geometry": {"type": "Point", "coordinates": [126.8325016, 33.4599065]}}, {"type": "Feature", "properties": {"task_name": "JJ-OREUM-292 우진제비", "observation_time": "2025-06-01T00:00:00Z", "sample_category": "scored", "sample_number": 59, "sample_true_false": true, "oreum_id": "JJ-OREUM-292", "tile": "52SBC", "abstain_reason": null, "event_flag_frac": 0.0251}, "geometry": {"type": "Point", "coordinates": [126.6994832, 33.4677794]}}, {"type": "Feature", "properties": {"task_name": "JJ-OREUM-293 운지악", "observation_time": "2025-06-01T00:00:00Z", "sample_category": "scored", "sample_number": 70, "sample_true_false": false, "oreum_id": "JJ-OREUM-293", "tile": "52SBB", "abstain_reason": null, "event_flag_frac": 0.0198}, "geometry": {"type": "Point", "coordinates": [126.7046944, 33.2994833]}}, {"type": "Feature", "properties": {"task_name": "JJ-OREUM-294 웃밤", "observation_time": "2025-06-01T00:00:00Z", "sample_category": "scored", "sample_number": 73, "sample_true_false": true, "oreum_id": "JJ-OREUM-294", "tile": "52SBC", "abstain_reason": null, "event_flag_frac": 0.0192}, "geometry": {"type": "Point", "coordinates": [126.7154228, 33.4773347]}}, {"type": "Feature", "properties": {"task_name": "JJ-OREUM-295 웃방애오름", "observation_time": "2025-06-01T00:00:00Z", "sample_category": "abstain", "sample_number": -1, "sample_true_false": false, "oreum_id": "JJ-OREUM-295", "tile": "52SBB", "abstain_reason": "event pair unobservable: 2025", "event_flag_frac": null}, "geometry": {"type": "Point", "coordinates": [126.529934, 33.35696]}}, {"type": "Feature", "properties": {"task_name": "JJ-OREUM-298 원당봉", "observation_time": "2025-06-01T00:00:00Z", "sample_category": "scored", "sample_number": 146, "sample_true_false": false, "oreum_id": "JJ-OREUM-298", "tile": "52SBC", "abstain_reason": null, "event_flag_frac": 0.0012}, "geometry": {"type": "Point", "coordinates": [126.5993679, 33.5251329]}}, {"type": "Feature", "properties": {"task_name": "JJ-OREUM-300 월라봉", "observation_time": "2025-06-01T00:00:00Z", "sample_category": "scored", "sample_number": 101, "sample_true_false": true, "oreum_id": "JJ-OREUM-300", "tile": "52SBB", "abstain_reason": null, "event_flag_frac": 0.0098}, "geometry": {"type": "Point", "coordinates": [126.3495017, 33.2439019]}}, {"type": "Feature", "properties": {"task_name": "JJ-OREUM-302 월랑지", "observation_time": "2025-06-01T00:00:00Z", "sample_category": "scored", "sample_number": 72, "sample_true_false": false, "oreum_id": "JJ-OREUM-302", "tile": "52SBC", "abstain_reason": null, "event_flag_frac": 0.0195}, "geometry": {"type": "Point", "coordinates": [126.8096533, 33.4391758]}}, {"type": "Feature", "properties": {"task_name": "JJ-OREUM-303 월산봉", "observation_time": "2025-06-01T00:00:00Z", "sample_category": "scored", "sample_number": 109, "sample_true_false": true, "oreum_id": "JJ-OREUM-303", "tile": "52SBB", "abstain_reason": null, "event_flag_frac": 0.0069}, "geometry": {"type": "Point", "coordinates": [126.50025, 33.25988]}}, {"type": "Feature", "properties": {"task_name": "JJ-OREUM-305 은월봉", "observation_time": "2025-06-01T00:00:00Z", "sample_category": "scored", "sample_number": 124, "sample_true_false": false, "oreum_id": "JJ-OREUM-305", "tile": "52SBC", "abstain_reason": null, "event_flag_frac": 0.0049}, "geometry": {"type": "Point", "coordinates": [126.8555975, 33.4691152]}}, {"type": "Feature", "properties": {"task_name": "JJ-OREUM-308 이달봉", "observation_time": "2025-06-01T00:00:00Z", "sample_category": "scored", "sample_number": 26, "sample_true_false": false, "oreum_id": "JJ-OREUM-308", "tile": "52SBB", "abstain_reason": null, "event_flag_frac": 0.0618}, "geometry": {"type": "Point", "coordinates": [126.3485106, 33.364167]}}, {"type": "Feature", "properties": {"task_name": "JJ-OREUM-309 이달이촛대봉", "observation_time": "2025-06-01T00:00:00Z", "sample_category": "scored", "sample_number": 23, "sample_true_false": false, "oreum_id": "JJ-OREUM-309", "tile": "52SBB", "abstain_reason": null, "event_flag_frac": 0.0678}, "geometry": {"type": "Point", "coordinates": [126.347002, 33.3662917]}}, {"type": "Feature", "properties": {"task_name": "JJ-OREUM-311 이스렁오름", "observation_time": "2025-06-01T00:00:00Z", "sample_category": "scored", "sample_number": 44, "sample_true_false": true, "oreum_id": "JJ-OREUM-311", "tile": "52SBC", "abstain_reason": null, "event_flag_frac": 0.0378}, "geometry": {"type": "Point", "coordinates": [126.4841947, 33.3622551]}}, {"type": "Feature", "properties": {"task_name": "JJ-OREUM-312 이승악", "observation_time": "2025-06-01T00:00:00Z", "sample_category": "abstain", "sample_number": -1, "sample_true_false": false, "oreum_id": "JJ-OREUM-312", "tile": "52SBB", "abstain_reason": "event pair unobservable: 2025", "event_flag_frac": null}, "geometry": {"type": "Point", "coordinates": [126.6222535, 33.3401686]}}, {"type": "Feature", "properties": {"task_name": "JJ-OREUM-313 인정오름", "observation_time": "2025-06-01T00:00:00Z", "sample_category": "abstain", "sample_number": -1, "sample_true_false": false, "oreum_id": "JJ-OREUM-313", "tile": "52SBB", "abstain_reason": "event pair unobservable: 2026", "event_flag_frac": null}, "geometry": {"type": "Point", "coordinates": [126.5849297, 33.2843073]}}, {"type": "Feature", "properties": {"task_name": "JJ-OREUM-314 입산봉", "observation_time": "2025-06-01T00:00:00Z", "sample_category": "scored", "sample_number": 118, "sample_true_false": false, "oreum_id": "JJ-OREUM-314", "tile": "52SBC", "abstain_reason": null, "event_flag_frac": 0.0053}, "geometry": {"type": "Point", "coordinates": [126.7582359, 33.5475847]}}, {"type": "Feature", "properties": {"task_name": "JJ-OREUM-315 입석오름", "observation_time": "2025-06-01T00:00:00Z", "sample_category": "abstain", "sample_number": -1, "sample_true_false": false, "oreum_id": "JJ-OREUM-315", "tile": "52SBB", "abstain_reason": "event pair unobservable: 2025", "event_flag_frac": null}, "geometry": {"type": "Point", "coordinates": [126.5696461, 33.3566955]}}, {"type": "Feature", "properties": {"task_name": "JJ-OREUM-316 자배봉", "observation_time": "2025-06-01T00:00:00Z", "sample_category": "scored", "sample_number": 76, "sample_true_false": false, "oreum_id": "JJ-OREUM-316", "tile": "52SBB", "abstain_reason": null, "event_flag_frac": 0.0178}, "geometry": {"type": "Point", "coordinates": [126.6769333, 33.301008]}}, {"type": "Feature", "properties": {"task_name": "JJ-OREUM-320 저지오름", "observation_time": "2025-06-01T00:00:00Z", "sample_category": "scored", "sample_number": 114, "sample_true_false": false, "oreum_id": "JJ-OREUM-320", "tile": "51SYT", "abstain_reason": null, "event_flag_frac": 0.0058}, "geometry": {"type": "Point", "coordinates": [126.2509465, 33.3329288]}}, {"type": "Feature", "properties": {"task_name": "JJ-OREUM-324 정물오름", "observation_time": "2025-06-01T00:00:00Z", "sample_category": "scored", "sample_number": 13, "sample_true_false": true, "oreum_id": "JJ-OREUM-324", "tile": "52SBB", "abstain_reason": null, "event_flag_frac": 0.0966}, "geometry": {"type": "Point", "coordinates": [126.3295604, 33.3384742]}}, {"type": "Feature", "properties": {"task_name": "JJ-OREUM-325 정월오름", "observation_time": "2025-06-01T00:00:00Z", "sample_category": "scored", "sample_number": 129, "sample_true_false": false, "oreum_id": "JJ-OREUM-325", "tile": "51SYT", "abstain_reason": null, "event_flag_frac": 0.0044}, "geometry": {"type": "Point", "coordinates": [126.241509, 33.3636835]}}, {"type": "Feature", "properties": {"task_name": "JJ-OREUM-326 제석오름", "observation_time": "2025-06-01T00:00:00Z", "sample_category": "scored", "sample_number": 28, "sample_true_false": true, "oreum_id": "JJ-OREUM-326", "tile": "52SBB", "abstain_reason": null, "event_flag_frac": 0.061}, "geometry": {"type": "Point", "coordinates": [126.8358901, 33.3475462]}}, {"type": "Feature", "properties": {"task_name": "JJ-OREUM-327 제지기오름", "observation_time": "2025-06-01T00:00:00Z", "sample_category": "scored", "sample_number": 120, "sample_true_false": false, "oreum_id": "JJ-OREUM-327", "tile": "52SBB", "abstain_reason": null, "event_flag_frac": 0.0051}, "geometry": {"type": "Point", "coordinates": [126.6093014, 33.2418268]}}, {"type": "Feature", "properties": {"task_name": "JJ-OREUM-331 족은대비악", "observation_time": "2025-06-01T00:00:00Z", "sample_category": "scored", "sample_number": 107, "sample_true_false": true, "oreum_id": "JJ-OREUM-331", "tile": "52SBC", "abstain_reason": null, "event_flag_frac": 0.0072}, "geometry": {"type": "Point", "coordinates": [126.3690562, 33.3304678]}}, {"type": "Feature", "properties": {"task_name": "JJ-OREUM-332 족은돌이미", "observation_time": "2025-06-01T00:00:00Z", "sample_category": "scored", "sample_number": 42, "sample_true_false": true, "oreum_id": "JJ-OREUM-332", "tile": "52SBC", "abstain_reason": null, "event_flag_frac": 0.0398}, "geometry": {"type": "Point", "coordinates": [126.7731454, 33.4400907]}}, {"type": "Feature", "properties": {"task_name": "JJ-OREUM-334 족은바리메", "observation_time": "2025-06-01T00:00:00Z", "sample_category": "scored", "sample_number": 32, "sample_true_false": true, "oreum_id": "JJ-OREUM-334", "tile": "52SBB", "abstain_reason": null, "event_flag_frac": 0.0543}, "geometry": {"type": "Point", "coordinates": [126.4002568, 33.3757183]}}, {"type": "Feature", "properties": {"task_name": "JJ-OREUM-335 족은방애오름", "observation_time": "2025-06-01T00:00:00Z", "sample_category": "abstain", "sample_number": -1, "sample_true_false": false, "oreum_id": "JJ-OREUM-335", "tile": "52SBC", "abstain_reason": "event pair unobservable: 2025", "event_flag_frac": null}, "geometry": {"type": "Point", "coordinates": [126.6840583, 33.43915]}}, {"type": "Feature", "properties": {"task_name": "JJ-OREUM-337 족은지그리", "observation_time": "2025-06-01T00:00:00Z", "sample_category": "scored", "sample_number": 47, "sample_true_false": true, "oreum_id": "JJ-OREUM-337", "tile": "52SBC", "abstain_reason": null, "event_flag_frac": 0.0336}, "geometry": {"type": "Point", "coordinates": [126.6457443, 33.4501101]}}, {"type": "Feature", "properties": {"task_name": "JJ-OREUM-339 좌보미", "observation_time": "2025-06-01T00:00:00Z", "sample_category": "scored", "sample_number": 71, "sample_true_false": false, "oreum_id": "JJ-OREUM-339", "tile": "52SBC", "abstain_reason": null, "event_flag_frac": 0.0198}, "geometry": {"type": "Point", "coordinates": [126.8067722, 33.4360887]}}, {"type": "Feature", "properties": {"task_name": "JJ-OREUM-340 좌보미알오름", "observation_time": "2025-06-01T00:00:00Z", "sample_category": "scored", "sample_number": 108, "sample_true_false": false, "oreum_id": "JJ-OREUM-340", "tile": "52SBC", "abstain_reason": null, "event_flag_frac": 0.0071}, "geometry": {"type": "Point", "coordinates": [126.81495, 33.43281]}}, {"type": "Feature", "properties": {"task_name": "JJ-OREUM-341 주체오름", "observation_time": "2025-06-01T00:00:00Z", "sample_category": "scored", "sample_number": 35, "sample_true_false": true, "oreum_id": "JJ-OREUM-341", "tile": "52SBC", "abstain_reason": null, "event_flag_frac": 0.0482}, "geometry": {"type": "Point", "coordinates": [126.748118, 33.4922209]}}, {"type": "Feature", "properties": {"task_name": "JJ-OREUM-342 지미봉", "observation_time": "2025-06-01T00:00:00Z", "sample_category": "abstain", "sample_number": -1, "sample_true_false": false, "oreum_id": "JJ-OREUM-342", "tile": "52SCC", "abstain_reason": "no cube", "event_flag_frac": null}, "geometry": {"type": "Point", "coordinates": [126.9023646, 33.4992653]}}, {"type": "Feature", "properties": {"task_name": "JJ-OREUM-344 천아오름", "observation_time": "2025-06-01T00:00:00Z", "sample_category": "abstain", "sample_number": -1, "sample_true_false": false, "oreum_id": "JJ-OREUM-344", "tile": "52SBB", "abstain_reason": "event pair unobservable: 2025", "event_flag_frac": null}, "geometry": {"type": "Point", "coordinates": [126.4499413, 33.3962689]}}, {"type": "Feature", "properties": {"task_name": "JJ-OREUM-345 천아오름", "observation_time": "2025-06-01T00:00:00Z", "sample_category": "scored", "sample_number": 122, "sample_true_false": false, "oreum_id": "JJ-OREUM-345", "tile": "51SYT", "abstain_reason": null, "event_flag_frac": 0.005}, "geometry": {"type": "Point", "coordinates": [126.2988927, 33.4045777]}}, {"type": "Feature", "properties": {"task_name": "JJ-OREUM-346 체오름", "observation_time": "2025-06-01T00:00:00Z", "sample_category": "abstain", "sample_number": -1, "sample_true_false": false, "oreum_id": "JJ-OREUM-346", "tile": "52SBC", "abstain_reason": "event pair unobservable: 2025", "event_flag_frac": null}, "geometry": {"type": "Point", "coordinates": [126.7492543, 33.4658896]}}, {"type": "Feature", "properties": {"task_name": "JJ-OREUM-347 쳇망오름", "observation_time": "2025-06-01T00:00:00Z", "sample_category": "abstain", "sample_number": -1, "sample_true_false": false, "oreum_id": "JJ-OREUM-347", "tile": "52SBB", "abstain_reason": "no cube", "event_flag_frac": null}, "geometry": {"type": "Point", "coordinates": [126.690582, 33.394679]}}, {"type": "Feature", "properties": {"task_name": "JJ-OREUM-349 칡(족은)오름", "observation_time": "2025-06-01T00:00:00Z", "sample_category": "scored", "sample_number": 79, "sample_true_false": false, "oreum_id": "JJ-OREUM-349", "tile": "52SBC", "abstain_reason": null, "event_flag_frac": 0.0173}, "geometry": {"type": "Point", "coordinates": [126.6126869, 33.4753831]}}, {"type": "Feature", "properties": {"task_name": "JJ-OREUM-351 칡오름", "observation_time": "2025-06-01T00:00:00Z", "sample_category": "abstain", "sample_number": -1, "sample_true_false": false, "oreum_id": "JJ-OREUM-351", "tile": "52SBB", "abstain_reason": "event pair unobservable: 2026", "event_flag_frac": null}, "geometry": {"type": "Point", "coordinates": [126.6028985, 33.2840136]}}, {"type": "Feature", "properties": {"task_name": "JJ-OREUM-352 칡오름", "observation_time": "2026-09-08T00:00:00Z", "sample_category": "scored", "sample_number": 5, "sample_true_false": true, "oreum_id": "JJ-OREUM-352", "tile": "52SBC", "abstain_reason": null, "event_flag_frac": 0.1523}, "geometry": {"type": "Point", "coordinates": [126.7620643, 33.4442936]}}, {"type": "Feature", "properties": {"task_name": "JJ-OREUM-356 큰지그리", "observation_time": "2025-06-01T00:00:00Z", "sample_category": "scored", "sample_number": 41, "sample_true_false": true, "oreum_id": "JJ-OREUM-356", "tile": "52SBC", "abstain_reason": null, "event_flag_frac": 0.0402}, "geometry": {"type": "Point", "coordinates": [126.6452612, 33.4437827]}}, {"type": "Feature", "properties": {"task_name": "JJ-OREUM-357 테역장오리", "observation_time": "2025-06-01T00:00:00Z", "sample_category": "abstain", "sample_number": -1, "sample_true_false": false, "oreum_id": "JJ-OREUM-357", "tile": "52SBB", "abstain_reason": "event pair unobservable: 2025", "event_flag_frac": null}, "geometry": {"type": "Point", "coordinates": [126.6032562, 33.4108769]}}, {"type": "Feature", "properties": {"task_name": "JJ-OREUM-359 통오름", "observation_time": "2025-06-01T00:00:00Z", "sample_category": "scored", "sample_number": 115, "sample_true_false": true, "oreum_id": "JJ-OREUM-359", "tile": "52SBB", "abstain_reason": null, "event_flag_frac": 0.0058}, "geometry": {"type": "Point", "coordinates": [126.8531147, 33.3921885]}}, {"type": "Feature", "properties": {"task_name": "JJ-OREUM-362 폭낭오름", "observation_time": "2025-06-01T00:00:00Z", "sample_category": "scored", "sample_number": 30, "sample_true_false": true, "oreum_id": "JJ-OREUM-362", "tile": "52SBB", "abstain_reason": null, "event_flag_frac": 0.0555}, "geometry": {"type": "Point", "coordinates": [126.3819717, 33.3521427]}}, {"type": "Feature", "properties": {"task_name": "JJ-OREUM-364 하늬보기", "observation_time": "2025-06-01T00:00:00Z", "sample_category": "scored", "sample_number": 65, "sample_true_false": true, "oreum_id": "JJ-OREUM-364", "tile": "52SBC", "abstain_reason": null, "event_flag_frac": 0.0213}, "geometry": {"type": "Point", "coordinates": [126.3915389, 33.3269278]}}, {"type": "Feature", "properties": {"task_name": "JJ-OREUM-365 한대오름", "observation_time": "2025-06-01T00:00:00Z", "sample_category": "abstain", "sample_number": -1, "sample_true_false": false, "oreum_id": "JJ-OREUM-365", "tile": "52SBC", "abstain_reason": "no cube", "event_flag_frac": null}, "geometry": {"type": "Point", "coordinates": [126.4244898, 33.3563423]}}, {"type": "Feature", "properties": {"task_name": "JJ-OREUM-367 흑악", "observation_time": "2025-06-01T00:00:00Z", "sample_category": "abstain", "sample_number": -1, "sample_true_false": false, "oreum_id": "JJ-OREUM-367", "tile": "52SBB", "abstain_reason": "event pair unobservable: 2025", "event_flag_frac": null}, "geometry": {"type": "Point", "coordinates": [126.619025, 33.3489222]}}, {"type": "Feature", "properties": {"task_name": "JJ-OREUM-368 흙붉은오름", "observation_time": "2025-06-01T00:00:00Z", "sample_category": "abstain", "sample_number": -1, "sample_true_false": false, "oreum_id": "JJ-OREUM-368", "tile": "52SBB", "abstain_reason": "event pair unobservable: 2025", "event_flag_frac": null}, "geometry": {"type": "Point", "coordinates": [126.5601442, 33.37969]}}]}