{
  "type": "FeatureCollection",
  "features": [
    {
      "type": "Feature",
      "geometry": {
        "type": "Polygon",
        "coordinates": [
          [
            [
              126.555799955,
              33.34273384
            ],
            [
              126.637553398,
              33.34273384
            ],
            [
              126.637553398,
              33.42353214
            ],
            [
              126.555799955,
              33.42353214
            ],
            [
              126.555799955,
              33.34273384
            ]
          ]
        ]
      },
      "properties": {
        "oe_start_time": "2025-01-01T00:00:00Z",
        "oe_end_time": "2025-12-31T23:59:59.999000Z",
        "oe_prediction_result_id": null,
        "oe_prediction_result_file_id": null,
        "oe_created_at": null,
        "sample_category_2": "abstain"
      }
    }
  ]
}