{
  "type": "Feature",
  "geometry": {
    "type": "Polygon",
    "coordinates": [
      [
        [
          67.68459814456207,
          27.96304176238919
        ],
        [
          67.70472040692636,
          27.96304176238919
        ],
        [
          67.70472040692636,
          27.945267306149756
        ],
        [
          67.68459814456207,
          27.945267306149756
        ],
        [
          67.68459814456207,
          27.96304176238919
        ]
      ]
    ]
  },
  "properties": {
    "id": "ks_00276",
    "event_id": "1111009",
    "event_date": "2022-09-10",
    "role": "raster_footprint_not_flood_boundary"
  }
}
